Title,Address,Latitude,Longitude,Found Address,Match Quality,Source
Zahnow Library/ Saginaw Valley State Univ,"Saginaw Valley State Univ,7400 Bay Rd,University Ctr US-MI 48710-0001 US",43.5139154,-83.9626849,"48710, 7400 Bay Rd, University Center, MI 48604, United States",Match,Google
Youngstown State University,"Youngstown State University MAAG LIBRARY,1 University Plaza,Youngstown US-OH 44555 US",41.1049419,-80.6465791,"1 University Plaza, Youngstown, OH 44555, USA",Match,Google
Yale University,"130 Wall Street,New Haven, CT 06520-8240",38.613277,-91.21458,"130 WALL ST, NEW HAVEN, MO, 63068",Match,US Census
WVU Robert C. Byrd Health Sciences Ctr,3 Evansdale Drive Morgantown WV US-WV 26506-6105 US,39.6476521,-79.9678728,"Evansdale Dr, Morgantown, WV 26505, USA",Partial Match,Google
Worcester Public Library,"Dept.,3 Salem Sq.,Worcester, MA 01608",42.2603989,-71.8003017,"3 Salem St, Worcester, MA 01608, USA",Partial Match,Google
WOODSTOCK PUBLIC LIBRARY DISTRICT ,"Woodstock Public Library District,5 Library LN,Woodstock US-NY 12498 US",42.040909,-74.1223224,"5 Library Ln, Woodstock, NY 12498, USA",Match,Google
Wm. D. McIntyre Library,"UNIV. OF WISCONSIN - EAU CLAIRE,105 GARFIELD AVENUE,EAU CLAIRE US-WI 54702",44.7967459,-91.5034191,"105 Garfield Ave, Eau Claire, WI 54701, USA",Match,Google
Wilson Library / Nyack College Manhattan campus,2 Washington St. 19th Fl. New York US-NY 10004 US,40.7056387,-74.0156958,"2 Washington St, New York, NY 10004, USA",Partial Match,Google
William R. Coe Library / ILL,1000 E. University Ave. Laramie US-WY 82071-3334,41.31376,-105.5843787,"1000 E University Ave, Laramie, WY 82071, USA",Partial Match,Google
WILLIAM MANZ/ST. JOHN'S UNIVERSITY LAW LIBRARY,8000 Utopia Pkwy Jamaica NY 11439,40.724247,-73.7945861,"8000 Utopia Pkwy, Jamaica, NY 11432, USA",Match,Google
WILLIAM K SANFORD TOWN LIBRARY/ILL,"629 ALBANY SHAKER RD,Loudonve NY US-NY 12211-1196 US",42.726162,-73.7918859,"629 Albany Shaker Rd, Albany, NY 12211, USA",Partial Match,Google
William F. Ruska Library,61 Sever St. P.O. Box 15071 Worcester MA 01615-0071,42.2690259,-71.811912,"61 Sever St, Worcester, MA 01609, USA",Partial Match,Google
"Wilkes University, E. S. Farley Library / ILL",187 South Franklin Street Wilkes-Barre PA 18766,41.2440161,-75.8888412,"187 S Franklin St, Wilkes-Barre, PA 18701, USA",Partial Match,Google
WHP-Main Library,20 South Main St W. Hartford CT 06107,41.7606651,-72.7414851,"20 S Main St, West Hartford, CT 06107, USA",Match,Google
Westlake Porter Public Library ILL,"27333 Center Ridge Rd.,Westlake US-OH 44145 US",41.4477264,-81.9246437,"27333 Center Ridge Rd, Westlake, OH 44145, USA",Match,Google
Westhampton Free Library,"7 Library Ave.,Westhampton Beach, NY 11978-2633",40.8093539,-72.6416279,"7 Library Ave, Westhampton Beach, NY 11978, USA",Partial Match,Google
Western New England School of Law Library,"1215 Wilbraham Road,Springfield US-MA 01119 US",42.1134056,-72.5226061,"1215 Wilbraham Rd, Springfield, MA 01119, USA",Match,Google
Westchester Library System / ILL,"570 Taxter Road,Suite 400,Elmsford US-NY 10523 US",41.0578427,-73.8290094,"570 Taxter Rd #400, Elmsford, NY 10523, USA",Match,Google
Westchester Community College Library,75 Grasslands Road Valhalla US-NY 10595 US,41.0684125,-73.789596,"75 Grasslands Rd, Valhalla, NY 10595, USA",Match,Google
Westbury Public Library - ILL,"445 Jefferson Street,Westbury US-NY 11590 US",40.7621992,-73.5832206,"445 Jefferson St, Westbury, NY 11590, USA",Match,Google
WEST POINT POST LIBRARY / ILL,"622 Swift Road,West Point NY 10996-1981",41.3787133,-73.9639903,"622 Swift Rd, West Point, NY 10996, USA",Partial Match,Google
West Chester University/ILL/Green Library,FHG Library 25 W. Rosedale Ave West Chester US-PA 19383 US,39.9518316,-75.5974243,"West Chester University, 25 W Rosedale Ave, West Chester, PA 19382, USA",Match,Google
WERNER HEALTH SCIENCES LIBRARY,1425 Portland Ave Rochester US-NY 14621 US,43.192906,-77.5870219,"1425 Portland Ave, Rochester, NY 14621, USA",Match,Google
Wellesley Free Library -ILL,"330 Homer Street, Dept.,Newton US-MA 02459 US",42.3358737,-71.2078584,"330 Homer St, Newton Centre, MA 02459, USA",Partial Match,Google
Wead Library,"64 Elm Street,Malone, NY 12953-1594,US",44.8512683,-74.2893874,"64 Elm St, Malone, NY 12953, USA",Partial Match,Google
Wayne State University Libraries / Interlibrary Loan,5150 Gullen Mall Adamany Undergraduate Library Detroit MI 48202,42.3564669,-83.0703463,"5150 Anthony Wayne Dr, Detroit, MI 48202, USA",Match,Google
Waltham Public Library,"735 Main Street, Dept.,Waltham US-MA 02451 US",42.3766522,-71.2395325,"735 Main St, Waltham, MA 02451, USA",Partial Match,Google
Wagner College,One Campus Road Staten Island US-NY 10301 US,40.6145939,-74.090871,"1 Campus Rd, Staten Island, NY 10301, USA",Match,Google
Wadsworth Library - ILL,777 Dedham Street Newton US-MA 02459 US,42.2990367,-71.1872229,"777 Dedham St, Newton, MA 02459, USA",Match,Google
VTC -Hartness Library,1 Main St. Randolph Ctr. US-VT 05061-0500 US,43.9406292,-72.6070707,"Main St, Randolph Center, VT 05061, USA",Partial Match,Google
Voorheesville Public Library/ILL,51 School Road Voorheesve US-NY 12186 US,42.6582572,-73.9387739,"51 School Rd, Voorheesville, NY 12186, USA",Partial Match,Google
Viterbo University Library / ILL,900 Viterbo Drive La Crosse US-WI 54601 US,43.802044,-91.245296,"900 Viterbo Dr, La Crosse, WI 54601, USA",Match,Google
"VISUAL ARTS LIBRARY, SCHOOL OF VISUAL ARTS","380 2nd Ave,2nd Fl,New York US-NY 10010 US",40.7369428,-73.9811552,"380 2nd Ave, New York, NY 10010, USA",Partial Match,Google
Village Library of Cooperstown,"22 Main Street,Cooperstown US-NY 13326 US",42.7001,-74.922166,"22 Main St, Cooperstown, NY 13326, USA",Match,Google
Vestal Public Library - ILL,"304 Clubhouse Rd.,Vestal US-NY 13850 US",42.0898866,-75.9498387,"304 Clubhouse Rd, Vestal, NY 13850, USA",Match,Google
Vaughn College of Aeronautics and Technology,86-01 23rd Ave. Flushing N.Y. 11369,40.7679103,-73.8824069,"86-01 23rd Ave, Flushing, NY 11369, USA",Match,Google
VASSAR COLLEGE LIBRARIES/ILL,124 Raymond Ave. Vassar College Libraries Poughkeepsie US-NY 12604 US,41.6860472,-73.8973432,"124 Raymond Ave, Poughkeepsie, NY 12604, USA",Match,Google
VAN NOY LIBRARY,5966 12TH STREET STE 101 FT BELVOIR VA 22060-5554,38.6975992,-77.1413629,"5966 12th St #101, Fort Belvoir, VA 22060, USA",Partial Match,Google
UTC LUPTON LIBRARY / INTERLIBRARY SERVICES,"615 McCallie Ave.,Chattanooga US-TN 37403-2598 US",35.0457741,-85.2997744,"615 McCallie Ave, Chattanooga, TN 37403, USA",Partial Match,Google
"USDA, Forest Service, Rocky Mountain Station",240 W PROSPECT RD FORT COLLINS US-CO 80526 US,40.567556,-105.080223,"240 W Prospect Rd, Fort Collins, CO 80526, USA",Match,Google
US ARMY RDECOM-ARDEC,PHIPPS ROAD PICATINNY ARSENAL NJ 07806-5000,40.937138,-74.57784,"Phipps Rd, Rockaway Township, NJ, USA",Partial Match,Google
Upper Hudson Library System/ILL,"28 Essex Street,Albany, NY 12206-2027",42.6774339,-73.7789144,"28 Essex St, Albany, NY 12206, USA",Partial Match,Google
University of Texas at Tyler,3900 University Blvd Tyler US-TX 75799 US,32.3157449,-95.2542312,"3900 University Blvd, Tyler, TX 75799, USA",Match,Google
University of Texas at El Paso,500 West University Avenue El Paso TX 79968-0582,31.7708544,-106.5046216,"500 W University Ave, El Paso, TX 79902, USA",Partial Match,Google
UNIVERSITY OF ST. FRANCIS LIBRARY,JOLIET IL 60435 600 Taylor St Joliet US-IL 60435 US,41.532206,-88.0960578,"600 Taylor St, Joliet, IL 60435, USA",Partial Match,Google
UNIVERSITY OF SOUTHERN MAINE/GLICKMAN FAMILY LIBRARY/PORTLAND CAMPUS,314 Forest Ave. P.O. Box 9301 Portland US-ME 04104-9301 US,43.6626578,-70.2725463,"314 Forest Ave, Portland, ME 04101, USA",Partial Match,Google
University of Saint Francis,"2701 Spring Street,Fort Wayne US-IN 46808 US",41.0878185,-85.177343,"2701 Spring St, Fort Wayne, IN 46808, USA",Match,Google
University of Puerto Rico/ Interlibrary Loan Office,",San Juan US-PR 00931-3302 US",18.40461,-66.050151,"Ponce de Leon Ave., San Juan, PR 00931",Partial Match,Google
University of Northern Colorado,"University of Northern Colorado,501 20th Street CB 48,Greeley US-CO 80639 US",40.4055121,-104.6960383,"501 20th St, Greeley, CO 80639, USA",Match,Google
UNIVERSITY OF NORTH CAROLINA - GREENSBORO / ILL / JACKSON LIBRARY,"P.O. Box 26170,320 College Ave.,Greensboro,NC,27402-6170",36.0681875,-79.8096074,"320 College Ave, Greensboro, NC 27412, USA",Partial Match,Google
University of NH / DIMOND LIBRARY-ILL,"18 Library Way,Durham US-NH 03824 US",43.1355148,-70.9332255,"18 Library Way, Durham, NH 03824, USA",Match,Google
UNIVERSITY OF NEBRASKA-LINCOLN / ILL,13TH & R STREETS P.O. BOX 884103 LINCOLN US-NE 68588-4103 US,40.816939,-96.702569,"R St & N 13th St, Lincoln, NE 68508, USA",Partial Match,Google
University of Nebraska at Omaha,6001 Dodge St Omaha NE 68182-0609,41.2581216,-96.0107121,"6001 Dodge St, Omaha, NE 68182, USA",Partial Match,Google
University of Montana,"Mansfield Library, ,32 Campus Dr.,Missoula, MT 59812-9936",46.8593661,-113.9829394,"32 Campus Dr, Missoula, MT 59812, USA",Match,Google
University of Mary Washington/ILL/Simpson Library /,"University of Mary Washington,1801 College Ave.,Fredericksburg, VA 22401-4664",38.3021703,-77.4742587,"1301 College Ave, Fredericksburg, VA 22401, USA",Match,Google
UNIVERSITY OF HARTFORD / MORTENSEN LIBRARY-ILS,"University of Hartford,200 Bloomfield Ave.,West Hartford US-CT 06117 US",41.7986012,-72.7138051,"200 Bloomfield Ave, West Hartford, CT 06117, USA",Match,Google
University Of Arkansas Libraries,University of Arkansas Libraries 365 North McIlroy Avenue Fayetteve US-AR 72701-4002 US,36.0686887,-94.1738021,"365 McIlroy Ave, Fayetteville, AR 72701, USA",Match,Google
University Library - ILL,"Santa Clara University,500 El Camino Real,Santa Clara US-CA 95053 US",37.3496418,-121.9389875,"500 El Camino Real, Santa Clara, CA 95053, USA",Match,Google
"University Libraries, ILL LI-110","University Library RM 110,1400 Washington Ave.,Albany US-NY 12222 US",42.6849434,-73.8252496,"1400 Washington Ave, Albany, NY 12222, USA",Match,Google
Univ. of Connecticut / Keremy Richard Library (UB1),"Jeremy Richard Library,,One University Place,Stamford, CT 06901",41.0560509,-73.5421624,"1 University Pl, Stamford, CT 06901, USA",Match,Google
Univ of Wisconsin Libraries,"728 State Street, Room B106F Memorial Library,Madison US-WI 53706-1494 US",43.075434,-89.397867,"University of Wisconsin-Madison, 728 State St, Madison, WI 53706, USA",Partial Match,Google
UMDNJ/GEORGE F. SMITH LIBRARY,30 TWELFTH AVENUE NEWARK NJ 07103,40.7404637,-74.1881449,"30 12th Ave, Newark, NJ 07103, USA",Match,Google
UMass Dartmouth / Carney Library / ILL Dept.,"UMass Dartmouth Carney Library,285 Old Westport Road,North Dartmouth US-MA 02747 US",41.6289466,-71.0069093,"285 Old Westport Rd, North Dartmouth, MA 02747, USA",Match,Google
UCSB Interlibrary Loan,"Davidson Library,525 UCEN Road,Santa Barbara, CA, 93106,U.S.A.,",34.4136876,-119.845559,"525 UCEN Rd, Santa Barbara, CA 93117, USA",Match,Google
U.S. EPA REGION 2 LIBRARY,"Dept. , 290 Broadway 16th Floor , NEW YORK, NY 10007",40.7147225,-74.0051426,"290 Broadway, New York, NY 10007, USA",Partial Match,Google
U of TX HSC-Houston,"UTSPH Library,1200 Pressler,Houston US-TX 77030 US",29.704977,-95.398074,"1200 Pressler St, Houston, TX 77030, USA",Match,Google
Twin Rivers Corrections Center Library,"P.O. Box 888,Monroe US-WA 98272-0888 US",47.8553772,-121.9709579,"Monroe, WA, USA",Partial Match,Google
Troy Public Library / ILL,",100 Second St,Troy, NY 12180",42.7279695,-73.6919542,"100 2nd St, Troy, NY 12180, USA",Match,Google
TOMPKINS CORTLAND COMMUNITY COLLEGE/LIBRARY/ILL,"P.O.BOX 139,170 NORTH STREET,DRYDEN US-NY 13053 US",42.5030098,-76.2981553,"170 North St, Dryden, NY 13053, USA",Partial Match,Google
Tisch Library Document Delivery / Tufts University,35 Professors Row Medford US-MA 02155 US,42.405986,-71.118725,"35 Professors Row, Medford, MA 02155, USA",Match,Google
TIMBERLAND REGIONAL LIBRARY/ILL,"415 Tumwater BLVD SW,Tumwater US-WA 98501 US",46.9832097,-122.9050599,"415 Tumwater Blvd SW, Tumwater, WA 98501, USA",Partial Match,Google
Three Lakes Public Library,6961 W School St WI 54562-0760,45.7962165,-89.1690881,"6961 W School St, Three Lakes, WI 54562, USA",Partial Match,Google
THE COLLEGE OF NEW JERSEY LIBRARY / ILL,"THE COLLEGE OF NEW JERSEY LIBRARY,2000 Pennington Road,P.O. Box 7718,Ewing US-NJ 08628-0718 US",40.2700876,-74.7770427,"2000 Pennington Rd, Ewing Township, NJ 08618, USA",Partial Match,Google
The Ames Library / Illinois Wesleyan Univ.,"PO Box 2899,Bloomington US-IL 61702-2899 US",40.5095467,-88.985868,"Bloomington, IL 61702, USA",Partial Match,Google
Teton County Library / ILL,"125 Virginian Ln,PO Box 1629,Jackson US-WY 83001-1629 US",43.4718,-110.78,"125 Virginian Ln, Jackson, WY 83001, USA",Partial Match,Google
Tennessee Tech University (TTU),5066 Cookeve US-TN 38505-0001 US,36.08951,-85.6067152,"5066 Cookeville Boat Dock Rd, Baxter, TN 38544, USA",Partial Match,Google
Temple University/Paley Library (017-00)/Interlibrary Loan,"Temple University,1210 West Berks St.,Philadelphia US-PA 19122 US",39.980825,-75.1495788,"Temple University Station, 927 W Berks St, Philadelphia, PA 19122, USA",Match,Google
TAE COURIER: 132 HOU,104 I-45 North Conroe US-TX 77301-2720 US,30.3101743,-95.4676183,"104 Interstate 45 N, Conroe, TX 77301, USA",Partial Match,Google
Syosset Public Library,"Syosset Public Library,225 South Oyster Bay Road,Syosset US-NY 11791 US",40.7987333,-73.5020748,"225 S Oyster Bay Rd, Syosset, NY 11791, USA",Match,Google
SUNY/STATE COLLEGE OF OPTOMETRY/Harold Kohn Vision Science Library,33 West 42nd Street New York US-NY 10036 US,40.7544368,-73.9821542,"33 W 42nd St, New York, NY 10036, USA",Match,Google
SUNY Upstate Medical University,",766 Irving Avenue,Syracuse US-NY 13210 US",43.0402889,-76.1390412,"766 Irving Ave, Syracuse, NY 13210, USA",Match,Google
SUNY Maritime College Library/ILL,6 Pennyfield Avenue Ft. Schuyler Bronx US-NY 10465-4198 US,40.805225,-73.791518,"SUNY Maritime College, 6 Pennyfield Avenue, Bronx, NY 10465, USA",Partial Match,Google
SUNY Farmingdale/ Interlibrary Loan,"Greenley Library,Farmingdale State College,Farmingdale US-NY 11735 US",40.7525499,-73.4287388,"2350 Broadhollow Rd, Farmingdale, NY 11735, USA",Match,Google
SUNY College of Technology at Alfred/ILL,"SUNY College of Technology at Alfred ,Hinkle Memorial Library,Interlibrary loan, 10 Upper College Dr.,Alfred, NY 14802",42.255143,-77.7953569,"10 Upper College Dr, Alfred, NY 14802, USA",Match,Google
SUNY College of Technology @ Delhi/Resnick Library/,"SUNY Delhi,454 Delhi Drive,Delhi US-NY 13753",42.2704551,-74.9241128,"454 Delhi Dr, Delhi, NY 13753, USA",Match,Google
SUNY College @ Old Westbury,223 Store H Road P. O. Box 229 Old Westbury US-NY 11568-0229 US,40.7804172,-73.5797906,"223 Store Hill Rd, Old Westbury, NY 11568, USA",Partial Match,Google
SUNY @ Buffalo/Arts & Sciences/ ILL,"Univ at Buffalo Libraries,234 Lockwood Library,Buffalo US-NY 14260-2200 US",43.000255,-78.786006,"Putnam Way, Buffalo, NY 14228, USA",Match,Google
Stony Brook University / ILL,100 Nicolls Road Stony Brook US-NY 11794-3339 US,40.9154724,-73.1227212,"100 Nicolls Rd, Stony Brook, NY 11790, USA",Partial Match,Google
Stewart Library - ILL,"Weber State University,3921 Central Campus Dr. Dept 2901,Ogden US-UT 84408-2901 US",41.194686,-111.9414138,"3885 Central Campus Dr, Ogden, UT 84403, USA",Partial Match,Google
Stevenson University Library / ILL,"Stevenson University Library,1525 Greenspring Valley Road,Stevenson US-MD 21153-0631 US",39.4216638,-76.7012976,"1525 Greenspring Valley Rd, Stevenson, MD 21153, USA",Match,Google
STATE LIBRARY OF OHIO / Interlibrary Loan,274 E. 1st Avenue - Suite 100 Columbus OH 43201,39.9811222,-82.9960706,"274 E 1st Ave #100, Columbus, OH 43201, USA",Match,Google
Stafford Creek Corrections Center Library,"191 Constantine Way,Aberdeen US-WA 98520 US",46.9255839,-123.9224381,"191 Constantine Way, Aberdeen, WA 98520, USA",Match,Google
St. Louis County Library / ILL,"1640 S. LINDBERGH BLVD,ST. LOUIS US-MO 63131 US",38.6301169,-90.4049885,"1640 S Lindbergh Blvd, St. Louis, MO 63131, USA",Match,Google
ST. LAWRENCE-LEWIS SCHOOL LIBRARY SYSTEM,St. Lawrence-Lewis School Library System,44.5949745,-75.181507,"40 W Main St, Canton, NY 13617, USA",Match,Google
St. Joseph's College/Callahan Library,"25 Audubon Avenue,Patchogue US-NY 11772 US",40.77595,-73.026142,"25 Audubon Ave, Patchogue, NY 11772, USA",Match,Google
St. Joseph's College,"278 Whites Bridge Rd. , Standish , ME 04084-5236",43.8270194,-70.4826594,"278 Whites Bridge Rd, Standish, ME 04084, USA",Partial Match,Google
St. John's University / LIBRARY ILL - ROOM 313,8000 Utopia Parkway Queens NY 11439 US,40.724247,-73.7945861,"8000 Utopia Pkwy, Jamaica, NY 11432, USA",Match,Google
ST. AMBROSE UNIVERSITY LIBRARY / ILL,518 W Locust Davenport IA US 52803,41.539169,-90.5799802,"518 Locust St, Davenport, IA 52803, USA",Partial Match,Google
ST TAMMANY PARISH LIBRARY-ILL,"19612 HWY 36,COVINGTON US-LA 70433 US",30.4814467,-90.0771727,"19612 LA-36, Covington, LA 70433, USA",Match,Google
Springfield City Library,"220 State Street,Springfield, MA 01103",42.103029,-72.5847746,"220 State St, Springfield, MA 01103, USA",Match,Google
Spartanburg County Public Library,",151 South Church St.,Spartanburg, SC 29306",34.9482922,-81.9304458,"151 S Church St, Spartanburg, SC 29306, USA",Match,Google
Southwestern University / ILS-Smith Library Center,"1001 E University Ave ,Georgetown US-TX 78626 US",30.6342496,-97.6657015,"1001 E University Ave, Georgetown, TX 78626, USA",Match,Google
SOUTHWEST RESEARCH INSTITUTE,"6220 CULEBRA ROAD,SAN ANTONIO TX 78238-5166",29.4523711,-98.6109818,"6220 Culebra Rd, San Antonio, TX 78238, USA",Partial Match,Google
Southold Free Library / ILL,"53705 MAINROAD, PO BOX 697,SOUTHOLD US-NY 11971-0697 US",41.0639494,-72.4288305,"53705 Main Rd, Southold, NY 11971, USA",Partial Match,Google
SOUTHERN WESTCHESTER BOCES SLS,"450 Mamaroneck Avenue,Harrison, NY 10528,450 Mamaroneck Avenue",40.9736395,-73.7417712,"Medical Office Building of White, 450 Mamaroneck Ave, Harrison, NY 10528, USA",Match,Google
SOUTHERN STATE COMMUN COLLEGE / LRC,"100 Hobart Dr.,Hsboro US-OH 45133 US",39.2364808,-83.6139477,"100 Hobart Dr, Hillsboro, OH 45133, USA",Partial Match,Google
Southeastern Louisiana University / ILL,"Southeastern LA Univ.,SLU 10896,Hammond,LA 70402",30.5173159,-90.4688572,"500 W University Ave, Hammond, LA 70402, USA",Match,Google
Somerset County Lib/ ILL,",1 Vogt Drive,PO Box 6700,Bridgewater US-NJ 08807 US",40.58792,-74.6076021,"1 Vogt Dr, Bridgewater, NJ 08807, USA",Match,Google
Smithtown - Nesconset Branch /Public Library,"148 Smithtown Blvd.,Nesconset, US-NY 11767-1799",40.8366284,-73.1590857,"148 Smithtown Blvd, Nesconset, NY 11767, USA",Partial Match,Google
Smathers Library / ATTN:Interlibrary Loan,"245 Library West, PO Box 117025,University of Florida, Gainesve, Fl 32611",29.6514302,-82.3429002,"University of Florida, 1545 W University Ave, Gainesville, FL 32611, USA",Partial Match,Google
SLS,"555 Warren Road,Ithaca US-NY 14850 US",42.4760763,-76.4648155,"555 Warren Rd, Ithaca, NY 14850, USA",Match,Google
Skokie Public Library / ILL,"5215 Oakton St.,Skokie US-IL 60077-3680 US",42.0257291,-87.7576986,"5215 Oakton St, Skokie, IL 60077, USA",Partial Match,Google
Skillman Library,"Lafayette College ,710 Sullivan Road,Easton, PA 18042",40.6985756,-75.2094516,"710 Sullivan Rd, Easton, PA 18042, USA",Match,Google
Siuslaw Public Library,"1460 9th St.,Florence US-OR 97439 US",43.9744147,-124.1053194,"1460 9th St, Florence, OR 97439, USA",Match,Google
SIMMONS COLLEGE LIBRARIES ILL,"Simmons College ,300 The Fenway,Boston US-MA 02115 US",42.3390666,-71.1006594,"300 Fenway, Boston, MA 02115, USA",Match,Google
SIENA COLLEGE LIBRARY/ILL,"Siena College,515 Loudon Rd.,Loudonve US-NY 12211-1462 US",42.7175627,-73.7525898,"515 Loudon Rd, Loudonville, NY 12211, USA",Partial Match,Google
Sidney Silverman Library - Interlibrary Loan / BERGEN COMMUNITY COLLEG,"Bergen Community College,400 Paramus Road,Paramus NJ,7652",40.9517197,-74.0886211,"400 Paramus Rd, Paramus, NJ 07652, USA",Match,Google
Shippensburg University - Lehman Library,"Shippensburg University,1871 Old Main Drive,Shippensburg US-PA 17257 US",40.0603939,-77.5234365,"1871 Old Main Dr, Shippensburg, PA 17257, USA",Match,Google
Sherrod Library ILL,"East Tennessee State University,Johnson City TN 37614-1701",36.3025374,-82.3701933,"1276 Gilbreath Dr, Johnson City, TN 37614, USA",Match,Google
SHENANDOAH UNIVERSITY / SMITH LIBRARY [MAIN CAMPUS],"Smith Library Dept.,1460 University Drive,Winchester US-VA 22601 US",39.1654869,-78.1586177,"1460 University Dr, Winchester, VA 22601, USA",Partial Match,Google
Shaker Heights Public Library / ILL Dept.,"Interlibrary Loan Dept.,16500 Van Aken Blvd.,Shaker Heights, OH 44120",41.4657668,-81.5665189,"16500 Van Aken Blvd, Cleveland, OH 44120, USA",Match,Google
SETON HALL U. LIBRARY/ILL,"Seton Hall University Library ,400 South Orange Ave.,South Orange, NJ 07079-2690",40.7422774,-74.2460919,"400 S Orange Ave, South Orange, NJ 07079, USA",Match,Google
SEO Library Center,"309 WEST SECOND ST,DELPHOS US-OH 45833 US",40.8433665,-84.3429129,"309 W 2nd St, Delphos, OH 45833, USA",Match,Google
Sea Cliff Public Library - ILL,Sea Cliff US-NY 11579 US,40.842212,-73.6447908,"Sea Cliff, NY 11579, USA",Match,Google
Scholes Library / ILL,2 Pine Street Alfred US-NY 14802 US,42.2564277,-77.7885327,"2 Pine St, Alfred, NY 14802, USA",Match,Google
Schoenbaum Library ILL Services,2300 MacCorkle Ave. SE Charleston US-WV 25304-1099 US,38.332638,-81.61837,"2300 MacCorkle Ave SE, Charleston, WV 25304, USA",Partial Match,Google
SCHAUMBURG TWP DIST LIBRARY,"130 S. Roselle,Schaumburg US-IL 60193 US",42.025461,-88.083314,"130 S Roselle Rd, Schaumburg, IL 60193, USA",Partial Match,Google
Schaffer Library of Health Sciences ILL,47 New Scotland Ave Albany US-NY 12208 US,42.6536322,-73.7767885,"47 New Scotland Ave, Albany, NY 12208, USA",Match,Google
Sayers Memorial Library,6870 Wold Avenue Bldg 93 Fort Benning US-GA 31905 US,32.3634407,-84.9649345,"6870 Wold Ave, Fort Benning, GA 31905, USA",Partial Match,Google
SARANAC LAKE FREE LIBRARY,"109 MAIN ST.,SARANAC LAKE US-NY 12983 US",44.3272624,-74.1303721,"109 Main St, Saranac Lake, NY 12983, USA",Match,Google
SAN ANTONIO PUBLIC LIBRARY / ILL,"600 Soledad,San Antonio US-TX 78205",29.4324141,-98.4928305,"600 Soledad St, San Antonio, TX 78205, USA",Partial Match,Google
SAINT FRANCIS COLLEGE / MCGARRY LIBRARY / ILL,"180 Remsen Street,Brooklyn US-NY 11201 US",40.6932301,-73.9921652,"180 Remsen St, Brooklyn, NY 11201, USA",Match,Google
SAGE COLLEGES / Albany Campus Library,"140 New Scotland Ave.,Albany US-NY 12208 US",42.6514661,-73.7825767,"140 New Scotland Ave, Albany, NY 12208, USA",Match,Google
Sacramento State Library,",2000 State University Drive, East,Sacramento US-CA 95819-6039 US",38.5596178,-121.4236365,"2000 State University Dr, Sacramento, CA 95819, USA",Partial Match,Google
Ryan Matura Library/ILL/Sacred Heart University,"Sacred Heart University Library,5151 Park Avenue Fairfield,Fairfield US-CT 06825-1000 US",41.2222759,-73.2429089,"5151 Park Ave, Fairfield, CT 06825, USA",Match,Google
Ruth Scarborough Library - ILL / Shepherd University,"Shepherd University,PO Box 5001,Shepherdstown US-WV 25443 US",39.436245,-77.8089633,"301 N King St, Shepherdstown, WV 25443, USA",Match,Google
Russell Sage Foundation Library/ILL,"112 East 64th St., New York, NY,10065",40.7656174,-73.966974,"112 E 64th St, New York, NY 10065, USA",Match,Google
RSC-WALDO LIBRARY/WESTERN MICHIGAN UNIVERSITY,"1903 West Michigan Ave,Kalamazoo US-MI 49008-5353 US",42.285144,-85.612241,"1903 W Michigan Ave, Kalamazoo, MI 49008, USA",Partial Match,Google
Roxbury Community College/LRC/ILL,",Roxbury Community College,Library,1234 Columbus Ave.,Roxbury Crossing US-MA 02120 US",42.329242,-71.095479,"1234 Columbus Ave, Roxbury Crossing, MA 02120, USA",Match,Google
Rolfing Library-ILL,"Trinity International University,2065 Half Day Road,Deerfield,IL 60015",42.1962259,-87.8809599,"2065 Half Day Rd, Deerfield, IL 60015, USA",Match,Google
Rockville Centre Publ.Libr./ ILL,"221 North Vage Ave,Rockve Centre US-NY 11570 US",40.6642139,-73.6483046,"221 N Village Ave, Rockville Centre, NY 11570, USA",Partial Match,Google
Rockland Community College / Library / ILL,"Rockland community college library,145 College Rd.,Suffern,NY 10901",41.1334696,-74.090226,"145 College Road, Suffern, NY 10901, USA",Match,Google
ROCHESTER PUBLIC LIBRARY/ILL/MONROE COUNTY LIBRARY SYSTEM,"DEPT,115 SOUTH AV,ROCHESTER,NY,14604",43.154095,-77.608209,"115 South Ave, Rochester, NY 14604, USA",Partial Match,Google
Robert J. Kibbee Library / ILL,"Kingsborough Community College Library,2001 Oriental Blvd.,Brooklyn US-NY 11235 US",40.5778144,-73.9355607,"2001 Oriental Blvd, Brooklyn, NY 11235, USA",Match,Google
Robert Bird OU Health Sciences Library - ILL,"1105 N Stonewall Ave.,Oklahoma City US-OK 73117-1222 US",35.478343,-97.4934288,"1105 N Stonewall Ave, Oklahoma City, OK 73117, USA",Partial Match,Google
Robbins Library,"700 Massachusetts Avenue, Dept.,Arlington US-MA 02476 US",42.4156522,-71.1550859,"700 Massachusetts Ave, Arlington, MA 02476, USA",Partial Match,Google
Rivier College - Regina Library / ILL Dept.,"Regina Library - ,420 S Main St,Nashua US-NH 03060 US",42.7384869,-71.4548192,"420 Main St, Nashua, NH 03060, USA",Match,Google
Riverhead Free Library,"330 Court St.,Riverhead, NY 11901-2885",40.9184605,-72.6692779,"330 Court St, Riverhead, NY 11901, USA",Partial Match,Google
Rhode Island College,"James P. Adams Library,Document Delivery Office,600 Mt. Pleasant Ave.,Providence US-RI 02908 US",41.8433733,-71.464577,"600 Mt Pleasant Ave, Providence, RI 02908, USA",Match,Google
RESEARCH CENTER/CENTER FOR ARMY ANALYSIS,"6001 GOETHALS ROAD,FORT BELVOIR US-VA 22060-5230",38.7147156,-77.1435732,"6001 Goethals Rd, Fort Belvoir, VA 22060, USA",Partial Match,Google
Regis College Library / ILL,"235 Wellesley St,Weston US-MA 02493 US",42.3514614,-71.308245,"235 Wellesley St, Weston, MA 02493, USA",Match,Google
Reference Desk-ILL / Library / New York State Office of the Attorney,"120 Broadway,25th Floor Room 25C25,New York City US-NY 10271 US",40.7082118,-74.010659,"120 Broadway #25c25, New York, NY 10271, USA",Partial Match,Google
Reference Department,"99 Glenwood Ave,Jersey City US-NJ 07306",40.727846,-74.0716087,"99 Glenwood Ave, Jersey City, NJ 07306, USA",Match,Google
Reed Library-Interlibrary Sharing,"Fort Lewis College,1000 Rim Drive,Durango US-CO 81301-3999 US",37.2737453,-107.8710381,"Kroeger Hall, 1000 Rim Dr, Durango, CO 81301, USA",Match,Google
Reed Library/SUNY College at Fredonia/ILL,"280 CENTRAL AVE.,FREDONIA US-NY 14063 US",42.4540921,-79.3340398,"280 Central Ave, Fredonia, NY 14063, USA",Partial Match,Google
READING PUBLIC LIBRARY / ILL,"100 South 5th Street,Reading US-PA 19602 US",40.3336738,-75.9279324,"100 S 5th St, Reading, PA 19602, USA",Match,Google
RAND Corporation,"1776 Main Street, P.O.Box 2138,Santa Monica, CA 90407-2138",34.0095767,-118.4907991,"1776 Main St, Santa Monica, CA 90401, USA",Partial Match,Google
Ramsley Technical Library-ILL,"Kansas Street , Natick, MA 01760-5056",42.2909613,-71.3608326,"Kansas St, Natick, MA 01760, USA",Partial Match,Google
Ramaker Library / ILL,"Ramaker Library,Northwestern College,101 7th ST. SW,Orange City, IA 51041",42.9990212,-96.0587881,"8th St SW, Orange City, IA 51041, USA",Match,Google
R.I.T./ Wallace Library/ ILL Dept.,"90 Lomb Memorial Dr. Bldg 5 Rm A500,Rochester US-NY 14623 US",43.0839412,-77.676341,"90 Lomb Memorial Dr, Rochester, NY 14623, USA",Match,Google
Quinsigamond Community College,"670 W. Boylston St., Worcester,MA 01606",42.3146277,-71.7938819,"670 W Boylston St, Worcester, MA 01606, USA",Match,Google
QUEENS HOSPITAL CENTER,"82-68 164TH STREET,JAMAICA NY 11432",40.7169778,-73.8041216,"82-68 164th St, Jamaica, NY 11432, USA",Match,Google
Putnam County Public Library Lynne,"103 E. Poplar,Greencastle, IN",39.6429701,-86.8631184,"103 E Poplar St, Greencastle, IN 46135, USA",Partial Match,Google
PURDUE UNIVERSITY LIBRARIES ILL,"504 West State Street,West Lafayette US-IN 47907-2058",40.4245283,-86.912637,"504 W State St, West Lafayette, IN 47907, USA",Partial Match,Google
Public Library of Cincinnati / Document Delivery,800 Vine Street Cincinnati Ohio 45202-2071,39.1057794,-84.5133076,"800 Vine St, Cincinnati, OH 45202, USA",Partial Match,Google
Princeton Public Library / ILL,"Andre Levie,65 Witherspoon St.,Princeton, NJ 08542,Princeton US-NJ 08542",40.351615,-74.660262,"65 Witherspoon St, Princeton, NJ 08542, USA",Match,Google
Prairie State College,"202 S. Halsted Street,Chciago Heights US-IL 60411 US",41.5255653,-87.6386099,"202 S Halsted St, Chicago Heights, IL 60411, USA",Partial Match,Google
Portland State University,"Portland State University,1875 SW Park Avenue,Portland US-OR 97201",45.5115796,-122.6860416,"1875 SW Park Ave, Portland, OR 97201, USA",Match,Google
Portland Community College Library,"- ROCK CREEK LIBRARY,17705 NW SPRINGVE RD,PORTLAND US-OR 97229 US",45.5671211,-122.8600537,"17705 NW Springville Rd, Portland, OR 97229, USA",Partial Match,Google
"POLLAK LIBRARY / ILL CALIFORNIA STATE UNIVERSITY, FULLERTON","CSU, Fullerton Library - ,PO Box 4150 , 800 N. State College Blvd.,Fullerton US-CA 92834 US",33.8810986,-117.8853769,"California State University Fullerton, 800 N State College Blvd, Fullerton, CA 92831, USA",Partial Match,Google
POINT PARK UNIVERSITY LIBRARY / ILL,"Point Park University Library , 201 Wood Street , Pittsburgh, PA 15222",40.4382916,-80.0014283,"201 Wood St, Pittsburgh, PA 15222, USA",Match,Google
Plattsburgh Public Library-ILL,"19 Oak Street,Plattsburgh US-NY 12901 US",44.6971985,-73.4556708,"19 Oak St, Plattsburgh, NY 12901, USA",Match,Google
PHILLIPS MEMORIAL LIBRARY/ ILL DEPT.,"Providence College,1 Cunningham Square,Providence US-RI 02918-0001 US",41.8440925,-71.4381653,"1 Cunningham Square, Providence, RI 02918, USA",Match,Google
Perkins Library / Interlibrary Loan,"Perkins Library - Doane College,1014 Boswell,Crete US-NE 68333 US",40.622954,-96.950967,"1014 Boswell Ave, Crete, NE 68333, USA",Match,Google
Pasquerilla Library / ILL,"Saint Francis University,117 Evergreen Drive,Loretto US-PA 15940 US",40.50382,-78.6376191,"117 Evergreen Drive, Loretto, PA 15940, USA",Match,Google
Palm Beach County Library System / ILL,"Palm Beach County Library, 3650 Summit Blvd., West Palm Beach, FL 33406",26.6626942,-80.0985877,"3650 Summit Blvd, West Palm Beach, FL 33406, USA",Match,Google
Palm Beach Community College Library / ILL,"Palm Beach State College,4200 Congress Avenue,Lake Worth, FL 33461 US",26.6129818,-80.0862299,"4200 S Congress Ave, Lake Worth, FL 33461, USA",Match,Google
Pacific University / Library / ILL Dept.,"Pacific University Library,2043 College Way,Forest Grove US-OR 97116-1756 US",45.5241539,-123.1098768,"2043 College Way, Forest Grove, OR 97116, USA",Match,Google
PACE UNIVERSITY,"1 Martine Ave. Room 426,White Plains US-NY 10606 US",40.971645,-73.677401,"1 Martin Rd #426, Rye, NY 10580, USA",Partial Match,Google
Otterbein University,"Courtright Memorial Library, Interlibrary Loan,Otterbein University,Westerve US-OH 43081 US",40.1265047,-82.936658,"138 W Main St, Westerville, OH 43081, USA",Match,Google
OTTENHEIMER LIBRARY/ ILL,"UNIVERSITY OF ARKANSAS AT LITTLE ROCK,2801 S. U NIVERSITY,LITTLEROCK,AR 72204",34.7240568,-92.3388872,"2801 S University Ave, Little Rock, AR 72204, USA",Partial Match,Google
Otsego-Northern Catskills BOCES School Library System (YSQ),"P.O. Box 57,1914 County Rt. 35,Milford US-NY 13807 US",42.5845657,-74.9272081,"County Hwy 35, New York, USA",Partial Match,Google
OSU-ILL / Tulsa Library,"INTERLIBRARY SERVICES,OSU-TULSA LIBRARY,700 N. GREENWOOD AVE,TULSA OK 74106-0700",36.164051,-95.988899,"700 N Greenwood Ave, Tulsa, OK 74106, USA",Match,Google
Orange County Community College / Library / ILL,"SUNY ORANGE,115 SOUTH STREET,MIDDLETOWN US-NY 10940",41.4386164,-74.4261043,"115 South St, Middletown, NY 10940, USA",Match,Google
Olson Library - ILL,"Northern Michigan University,1401 Presque Isle Avenue,Marquette US-MI 49855-5376 US",46.5596032,-87.4044868,"1401 Presque Isle Ave, Marquette, MI 49855, USA",Match,Google
Oklahoma Dept. of Libraries / ILL,",P.O. BOX 1018,HINTON US-OK 73047 US",35.4714415,-98.3556162,"Hinton, OK 73047, USA",Match,Google
Oklahoma City University Law Library- ILL,"800 N. Harvey Ave.,Oklahoma City US-OK 73102 US",35.4756535,-97.5172378,"800 N Harvey Ave, Oklahoma City, OK 73102, USA",Match,Google
"ODYSSEY: 206.107.43.120, EMAIL: illhilo@hawaii.edu, or Article Exchang","University of Hawaii at Hilo - Mookini Library Dept.,200 W. Kawili St.,Hilo US-HI 96720 US",19.6995703,-155.0807536,"200 W Kawili St, Hilo, HI 96720, USA",Match,Google
Odyssey Sender,"28 Westhampton Way,University of Richmond US-VA 23173 US",37.5758681,-77.5409744,"28 Westhampton Way, Richmond, VA 23173, USA",Match,Google
OCPL Interlibrary Loan,"58 Doris Avenue East,Jacksonve US-NC 28540 US",34.7526993,-77.4323913,"9 Tallman St, Jacksonville, NC 28540, USA",Partial Match,Google
NYS Dept. of Environmental Conservation RESEARCH LIBRARY,"NYS Dept. of Environmental Conservation,625 Broadway - 1st Floor,Albany US-NY 12233-2700 US",42.652359,-73.74861,"625 Broadway, Albany, NY 12233, USA",Partial Match,Google
NYCAMH Library,One Atwell Rd. Cooperstown US-NY 13326 US,42.6960158,-74.9231863,"1 Atwell Rd, Cooperstown, NY 13326, USA",Match,Google
Nyack College,"Nyack College - Bailey Library,One South Blvd.,Nyack US-NY 10960 US",41.0882386,-73.9314597,"122 Highland Ave, Nyack, NY 10960, USA",Match,Google
ntoftness@nv.edu,750 Chase Parkway Waterbury US-CT 06708 US,41.549329,-73.073553,"750 Chase Pkwy, Waterbury, CT 06708, USA",Match,Google
NORTHERN ARIZONA UNIVERSITY / CLINE LIBRARY / DDS / BLDG 28,1001 S. Knoles Drive Building 28 Flagstaff US-AZ 86011-6022 US,35.1892425,-111.657141,"1001 S Knoles Dr, Flagstaff, AZ 86001, USA",Partial Match,Google
North Dakota State Library,"604 E Boulevard Ave, Dept 250,Bismarck US-ND 58505-0800 US",46.8192453,-100.7815634,"604 E Boulevard Ave, Bismarck, ND 58505, USA",Partial Match,Google
North Country Library System / ILL,"22072 County Route 190,Watertown US-NY 13601 US",43.9971424,-75.932341,"22072 County Rd 190, Watertown, NY 13601, USA",Match,Google
North Bellmore Public Library,"1551 Newbridge Road,North Bellmore US-NY 11710 US",40.6830806,-73.539699,"1551 Newbridge Rd, North Bellmore, NY 11710, USA",Match,Google
NORMA BATARCE,US,37.09024,-95.712891,United States,Match,Google
Nioga Library System,"6575 Wheeler Rd,Lockport US-NY 14094 US",43.2228643,-78.6700025,"6575 Wheeler Rd, Lockport, NY 14094, USA",Match,Google
NEWMAN UNIVERSITY - KS752,"DUGAN LIBRARY - ,3100 MCCORMICK,WICHITA US-KS 67213-2097 US",37.6727186,-97.3775713,"Dugan Library & Campus Center, 3100 McCormick St, Wichita, KS 67213, USA",Partial Match,Google
New York University Law Library,"New York University Law Library,40 Washington Square South,New York 10012 US",40.7303918,-73.9993699,"40 Washington Square S, New York, NY 10012, USA",Match,Google
New York State Historical Association / REARCH LIBRARY-ILL,"New York State Historical Association,PO Box 800, 5798 State Highway 80,Cooperstown US-NY 13326-0800 US",42.7157015,-74.9271191,"5798 NY-80, Cooperstown, NY 13326, USA",Partial Match,Google
NEW YORK SOCIETY LIBRARY / ILL,"The New York Society Library,53 East 79th Street,New York US-NY 10075-0250 US",40.77634,-73.96144,"53 E 79th St, New York, NY 10075, USA",Match,Google
"New York Law School, Mendik Library, Interlibrary Loan","New York Law School,185 West Broadway,New York US-NY 10013 US",40.717982,-74.006988,"185 W Broadway, New York, NY 10013, USA",Match,Google
New York Chiropractic Coll Library / ILL,"2360 State Route 89,Seneca Falls US-NY 13148-0800",42.9116558,-76.7564445,"2360 NY-89, Seneca Falls, NY 13148, USA",Partial Match,Google
New Castle Public Library / ILL,"207 E. North Street,New Castle, Pa. 16101-3691",41.0017047,-80.3439037,"207 E North St, New Castle, PA 16101, USA",Partial Match,Google
New Berlin Public Library,"15105 Library Lane,WI,New Berlin 53151-5280",42.9795578,-88.1019233,"15105 W Library Ln, New Berlin, WI 53151, USA",Partial Match,Google
Nassau Library System - ILL,"900 Jerusalem Ave,Uniondale US-NY 11553 US",40.6957531,-73.5851277,"900 Jerusalem Ave, Uniondale, NY 11553, USA",Match,Google
N. Mallerdino,"New Castle Co. Libraries,Tech. Svs.,Bear Library,101 Governors Place,Bear, DE 19701",39.6354204,-75.6600616,"Governors Square Shopping Center, 101 Governors Pl, Bear, DE 19701, USA",Match,Google
Murdock Learning Resource Center,416 N. Meridian St. Newberg US-OR 97132-2698 US,45.3031523,-122.9705508,"416 N Meridian St, Newberg, OR 97132, USA",Partial Match,Google
Muhlenberg College Library / ILL-EVI,"2400 Chew St,Allentown US-PA 18104 US",40.5882533,-75.5395654,"2400 Chew St, Allentown, PA 18104, USA",Match,Google
Mt.Hood Community College Library,"Mt.Hood Community College Library,26000 SE Stark Street,Gresham US-OR 97030 US",45.5165261,-122.3961821,"26000 SE Stark St, Gresham, OR 97030, USA",Match,Google
Ms.Surintha Lasakun (Worldshare ILL),"Chiang Mai University Library,239 Huay Kaew Road, Muang District, Chiang Mai 50200,TH",18.8033673,98.9537094,"239 Huay Kaew Road Chiang Mai, Amphoe Mueang Chiang Mai, Chang Wat Chiang Mai 50200, Thailand",Match,Google
Moravian College & Moravian Theological Seminary,"Reeves Library,Moravian College1200 Main Street,Bethlehem US-PA 18018 US",40.6308814,-75.3812135,"1200 Main St, Bethlehem, PA 18018, USA",Match,Google
MONTGOMERY COUNTY COMMUNITY COLLEGE / ILL,"Library - Montgomery Cty. Comm. Coll.,340 DeKalb Pike,Blue Bell US-PA 19422 US",40.1763373,-75.2755938,"340 Dekalb Pike, Blue Bell, PA 19422, USA",Match,Google
Montefiore Medical Library,"Health Sciences Library,111 E 210th Street,Bronx, NY 10467,US",40.8800817,-73.8798383,"111 E 210th St, Bronx, NY 10467, USA",Match,Google
MONROE COMMUNITY COLLEGE/LEROY V. GOOD LIBRARY-ILL,"LeRoy V. Good Library ,PO Box 92810-1000 E Henrietta Road,Rochester US-NY 14692-8910 US",43.1009833,-77.6101465,"1000 E Henrietta Rd, Rochester, NY 14623, USA",Partial Match,Google
Mommouth Univerity Library / ILL,",400 Cedar Ave.,West Long Branch US-NJ 07764 US",40.2828574,-74.0026318,"400 Cedar Ave, West Long Branch, NJ 07764, USA",Match,Google
MOHAWK VALLEY COMMUNITY COLLEGE / LIBRARY / ILL,1101 Sherman Drive Utica US-NY 13501 US,43.077007,-75.218217,"1101 Sherman Dr, Utica, NY 13501, USA",Match,Google
University Central MO,"James C. Kirkpatrick Library Univ of Central MO.,601 S Missouri,Warrensburg US-MO 64093 US",38.7559201,-93.7373204,"601 Missouri St, Warrensburg, MO 64093, USA",Match,Google
MO99 COKAMO,",ST LOUIS PUBLIC LIBRARY,1415 OLIVE ST,ST LOUIS US-MO 63103 US",38.6307357,-90.199499,"1301 Olive St, St. Louis, MO 63103, USA",Match,Google
Olathe Public Library,"201 East Park Olathe ,KS 66061-3499 US",38.8817531,-94.8176701,"201 E Park St, Olathe, KS 66061, USA",Partial Match,Google
Minnesota State University Library Services,"601 Maywood Ave,PO Box 8419,Mankato US-MN 56002-8419 US",44.1483818,-93.9993909,"601 Maywood Ave, Mankato, MN 56001, USA",Partial Match,Google
Milne Library,"Milne Library,1 College Circle,Geneseo US-NY 14454 US",42.7973799,-77.8199091,"1 College Cir #1, Geneseo, NY 14454, USA",Match,Google
Midwestern St. Univ Moffett Library / ILL,"3410 Taft Blvd.,Wichita Falls, TX 76308",33.8762984,-98.5198092,"3410 Taft Blvd, Wichita Falls, TX 76308, USA",Match,Google
MIDDLETOWN THRALL LIBRARY,"11-19 DEPOT STREET,MIDDLETOWN US-NY 10940 US",41.4470746,-74.4205309,"11-19 Depot St, Middletown, NY 10940, USA",Match,Google
MID-CONTINENT PUBLIC LIBRARY/ILL,"MID-CONTINENT PUBLIC LIBRARY,15616 E 24 HWY,INDEPENDENCE US-MO 64050 US",39.1115855,-94.391628,"15616 E. 24 Hwy, Independence, MO 64050, USA",Match,Google
Metropolitan College of New York Attn: ILL Librarian,"431 Canal Street,Library 12th Floor,New York US-NY 10013 US",40.7531823,-73.9822534,"476 5th Ave, New York, NY 10018, USA",Match,Google
Mesa State College Library (Tomlinson Library),"Colorado Mesa University,1200 College Place,Grand Junction, CO US-CO 81501 US",39.0808594,-108.5543371,"1100 North Ave, Grand Junction, CO 81501, USA",Match,Google
Mercyhurst College/Hammermill Library/ILL,"Hammerm Library,501 East 38 Street,Erie US-PA 16546 US",42.1053129,-80.0531803,"501 E 38th St, Erie, PA 16546, USA",Match,Google
Mercer University Jack Tarver Library,"1501 Mercer University Drive,Mercer University,Macon US-GA 31207 US",32.8287784,-83.6496381,"1501 Mercer University Dr, Macon, GA 31207, USA",Match,Google
Memorial Sloan Kettering Cancer,"Memorial Sloan Kettering Cancer Center,1275 York Avenue,New York, NY 10065",40.7642751,-73.9567262,"1275 York Ave, New York, NY 10065, USA",Match,Google
Melville Library - AHEC Pine Bluff,MELVE LIBRARY,34.1884295,-92.0163745,"4010 S Mulberry St, Pine Bluff, AR 71603, USA",Partial Match,Google
Medical Library / HOLY SPIRIT HOSPITAL,"Holy Spirit Hospital,503 N. 21st St.,Camp H US-PA 17011 US",40.2536274,-76.9222033,"503 N 21st St, Camp Hill, PA 17011, USA",Match,Google
Medical Library - Bldg. 7777 Room 2D01,"Wiam Beaumont Army Medical,5005 N. Piedras St.,El Paso US-TX 79920-5001 US",31.8212728,-106.4623904,"5005 N Piedras St, El Paso, TX 79920, USA",Match,Google
Medaille College Library,"18 Agassiz Circle,Buffalo, N.Y. 14214",42.928608,-78.8559545,"18 Agassiz Cir, Buffalo, NY 14214, USA",Match,Google
MCNEESE STATE UNIV / ILL / Library,McNeese State University Lake Charles LA 70609-1445 USA,30.1804575,-93.2178729,"4205 Ryan St, Lake Charles, LA 70605, USA",Match,Google
McCartney Library ILL,"Geneva College,3200 College Ave.,Beaver Falls, PA 15010",40.7713156,-80.3218472,"3200 College Ave, Beaver Falls, PA 15010, USA",Match,Google
MARY IMOGENE BASSETT HOSPITAL,"MEDICAL LIBRARY,1 ATWELL RD,COOPERSTOWN NY 13326",42.6956257,-74.9236009,"1 Atwell Rd, Cooperstown, NY 13326, USA",Match,Google
MARGE RHODES,"WESTINGHOUSE ELECTRIC COMPANY,1000 WESTINGHOUSE DRIVE,SUITE 172,CRANBERRY TOWNSHIP,PA 16066",40.6812566,-80.0849855,"1000 Westinghouse Dr #572a, Cranberry Twp, PA 16066, USA",Match,Google
MANSFIELD UNIVERITY OF PA / LIBRARY / ILL,"907 Front Street,Binghamton US-NY 13905 US",42.1351978,-75.9124355,"907 Front St, Binghamton, NY 13905, USA",Match,Google
MANHATTANVILLE COLLEGE / LIBRARY - ILL,"Library - ,2900 Purchase Street,PURCHASE US-NY 10577 US",41.0405525,-73.7142277,"3093 Purchase St, Purchase, NY 10577, USA",Match,Google
Manchester Community-Technical College Library,1 Great Path Manchester US-CT 06045-1046 US,41.7622906,-72.5670043,"Great Path, Manchester, CT 06040, USA",Partial Match,Google
Malverne Public Library / ILL,"169 Jerusalem Avenue,Hicksve US-NY 11801 US",40.7620628,-73.5230156,"169 Jerusalem Ave, Hicksville, NY 11801, USA",Partial Match,Google
Maine State Library / ILL-OCLC,"930 BOG ROAD,EAST VASSALBORO US-ME 04935-0062 US",44.4498734,-69.6205651,"930 Bog Rd, Vassalboro, ME 04989, USA",Partial Match,Google
Macdonald DeWitt Library,"Ulster County Community College,491 Cottek Rd,Stone Ridge US-NY 12440 US",41.851499,-74.128999,"491 Cottekill Rd, Stone Ridge, NY 12484, USA",Partial Match,Google
Loyola University New Orleans,"Loyola University New Orleans,6363 St. Charles Ave.,New Orleans US-LA 70118 US",29.935716,-90.1203782,"6363 St Charles Ave, New Orleans, LA 70118, USA",Match,Google
"Liz Curry, ILL / McGrath Library","McGrath Library,Hilbert College,5200 South Park Ave,Hamburg NY 14075",42.7536002,-78.8214343,"5200 South Park Ave, Hamburg, NY 14075, USA",Match,Google
Lisa Bonifacic The Andrew W. Mellon Foundation 140 East 62nd Street,US,37.09024,-95.712891,United States,Match,Google
LINDENHURST MEMORIAL LIBRARY,"ONE LEE AVENUE,LINDENHURST US-NY US",40.6826485,-73.3674674,"1 Lee Ave, Lindenhurst, NY 11757, USA",Match,Google
Linda Pendorf,1136 Freedom Drive Oneida NY 13421,43.0708586,-75.6357817,"1136-1141 Freedom Dr, Oneida, NY 13421, USA",Partial Match,Google
Library-North Country Community College,"P.O. Box 89,23 Santanoni Ave.,Saranac Lake US-NY 12983-0089 US",44.318853,-74.1211271,"23 Santanoni Ave, Saranac Lake, NY 12983, USA",Partial Match,Google
Library-Interlibrary Loan Office,"Salem State University,352 Lafayette St.,Salem, MA 01970-5348,USA",42.503103,-70.890682,"352 Lafayette St, Salem, MA 01970, USA",Match,Google
"Library-ILS, California State University Long Beach","1250 Bellflower Blvd.,Long Beach US-CA 90840-1901 US",33.7810359,-118.1135711,"1250 N Bellflower Blvd, Long Beach, CA 90840, USA",Partial Match,Google
Library/ILL/Springfield Tech. Comm. College,"1 Armory Sq.,Suite 1 PO Box 9000,Springfield US-MA 01102-9000 US",42.1088724,-72.5785599,"1 Armory St #1, Springfield, MA 01105, USA",Partial Match,Google
LIBRARY/CAYUGA COMMUNITY COLLEGE,"Cayuga Community College,Franklin Street,Auburn, NY 13021-3099",42.9438003,-76.5435399,"197 Franklin St, Auburn, NY 13021, USA",Match,Google
Library Technology Center - ILL,"Concordia University,1282 Concordia Ave,St. Paul US-MN 55104 US",44.9494817,-93.1530429,"1282 Concordia Ave, St Paul, MN 55104, USA",Match,Google
Library of Virginia ILL,"800 East Broad St,Richmond US-VA 23219 US",37.5415632,-77.4338864,"800 E Broad St, Richmond, VA 23219, USA",Match,Google
LIBRARY OF THE CHATHAMS / ILL,"Morris County Library,30 E Hanover Ave,Whippany US-NJ 07981 US",40.8064405,-74.4524711,"30 Hanover Ave, Whippany, NJ 07981, USA",Match,Google
Library ILL/Dominican University of California,"Dominican University of California,50 Acacia Avenue,San Rafael US-CA 94901 US",37.9798656,-122.5129887,"50 Acacia Ave, San Rafael, CA 94901, USA",Match,Google
Library / Interlibrary Loan,"Massachusetts School of Professional Psychology,One Wells Avenue,Newton US-MA 02459 US",42.2949598,-71.20325,"One Wells Ave, Newton, MA 02459, USA",Match,Google
LIBRARY / ILL / FITCHBURG STATE COLLEGE,"Fitchburg State University , Amelia V. Gallucci-Cirio Library,160 Pearl Street,Fitchburg US-MA 01420-2697 US",42.5900165,-71.7889139,"160 Pearl St, Fitchburg, MA 01420, USA",Match,Google
Maryville U of St. Louis,"Maryve University of St. Louis,650 Maryve University Drive,St. Louis MO US 63141",38.6456624,-90.5047854,"650 Maryville University Dr, St. Louis, MO 63141, USA",Partial Match,Google
Ryerson U,"Ryerson University,350 Victoria St.,Toronto CA-ON M5B 2K3 CA",43.6576585,-79.3788017,"350 Victoria St, Toronto, ON M5B 2K3, Canada",Match,Google
Humbolt State,"1 Harpst St.,Humboldt State University,Arcata, CA 95521-8299",40.8752748,-124.077821,"1 Harpst St, Arcata, CA 95521, USA",Match,Google
LIBRARY - DOCUMENT DELIVERY DEPT.,"NEW YORK ACADEMY OF MEDICINE LIBRARY,1216 FIFTH AVE.,NEW YORK US-NY 10029 US",40.7921,-73.9523826,"1216 5th Ave, New York, NY 10029, USA",Match,Google
Library,"Argosy University Twin Cities,1515 Central Parkway,Eagan, MN 55121",44.8373018,-93.1738039,"1515 Central Pkwy, Eagan, MN 55121, USA",Match,Google
Levittown Public Library,"1 Bluegrass Lane,Levittown US-NY 11756 US",40.723237,-73.5296919,"1 Bluegrass Ln, Levittown, NY 11756, USA",Match,Google
Levitt Medical Library ILL,"Mercy Medical Center - Des Moines,1111 6th Avenue,Des Moines US-IA 50314 US",41.598853,-93.623385,"1111 6th Ave, Des Moines, IA 50314, USA",Match,Google
Leslie Barr,"Mengle Memorial Library,324 Main Street,Brockway US-PA 15824-0324 US",41.2492053,-78.8003437,"324 Main St, Brockway, PA 15824, USA",Match,Google
LENOIR-RHYNE UNIVERSITY,"625 7th AVENUE NE,HICKORY US-NC 28603 US",35.739195,-81.3257239,"625 7th Ave NE, Hickory, NC 28601, USA",Partial Match,Google
LEBANON VALLEY COLLEGE / BISHOP LIBRARY / ILL,"Lebanon Valley College,101 N. College Avenue,Annve US-PA 17003 US",40.331103,-76.514699,"101 College Ave, Annville, PA 17003, USA",Match,Google
Lavery Library - ILL,"St. John Fisher College,3690 East Avenue,Rochester US-NY 14618 US",43.115372,-77.511511,"3690 East Ave, Rochester, NY 14618, USA",Match,Google
Langsam Library / ILL,"University of Cincinnati Langsam Library,2911 Woodside Dr,Cincinnati US-OH 45221-0033 US",39.1343509,-84.5154191,"2911 Woodside Drive, Cincinnati, OH 45221, USA",Match,Google
Landmark College / ILL / Library,"19 River Road South,Putney US-VT 05346 US",42.9765121,-72.5123972,"19 River Rd S, Putney, VT 05346, USA",Match,Google
Kurt R. Schmeller Library / Queensborough Comm.Coll. / ILL,"Queensborough Community College,222-05 56th Avenue US-NY US 11364",40.7554707,-73.7569918,"222-05 56th Ave, Bayside, NY 11364, USA",Match,Google
KRESGE LIBRARY/ INTERLIBRARY LOAN,"OAKLAND UNIVERSITY,100 Library Drive,ROCHESTER US-MI 48309-4479 US",42.6719751,-83.2149763,"Oakland University, 115 Library Dr, Rochester, MI 48309, USA",Partial Match,Google
Kreitzberg Library ILL,"Norwich University,158 Harmon Dr,Northfield US-VT 05663",44.1390054,-72.6612317,"158 Harmon Dr, Northfield, VT 05663, USA",Match,Google
Krauskopf Library ILL,"Delaware Valley College,700 East Butler Avenue,Doylestown US-PA 18901-2697 US",40.2987672,-75.1588217,"700 E Butler Ave, Doylestown, PA 18901, USA",Match,Google
Knowl'd Info Svc (142D),"Bedford VA Medical Center,200 Springs Rd,Bedford US-MA 01730 US",42.5048352,-71.2731704,"200 Springs Rd, Bedford, MA 01730, USA",Match,Google
KIRKLAND TOWN LIBRARY / ILL,"KIRKLAND TOWN LIBRARY,55 1-2 COLLEGE ST.,CLINTON, NY 13323",43.047749,-75.384274,"55 1/2 College St, Clinton, NY 13323, USA",Match,Google
Kimbel Library / ILL / Coastal Carolina University,107 Founders Dr. Conway SC 29528-6054 US,33.797866,-79.016816,"107 Founders Dr, Conway, SC 29526, USA",Partial Match,Google
Keuka College/Lightner Library ILL,"Lightner Library ,141 Central Ave,Keuka Park US-NY 14478 US",42.616016,-77.089701,"141 Central Ave, Keuka Park, NY 14478, USA",Match,Google
KELLOGG HUBBARD LIBRARY - ILL DEPT,"135 MAIN STREET,MONTPELIER VT US 05602",44.2610843,-72.5736603,"135 Main St, Montpelier, VT 05602, USA",Match,Google
KANSAS STATE UNIVERSITY,"KANSAS STATE UNIVERSITY,137 HALE LIBRARY,MANHATTAN US-KS 66506-1200 US",39.1906147,-96.5806322,"137 Hale Library, Manhattan, KS 66506, USA",Match,Google
"Juliette Hampton Morgan Memorial Library, ILL","245 High St.,Montgomery US-AL 36104 US",32.3725223,-86.305448,"245 High St, Montgomery, AL 36104, USA",Match,Google
Johns Hopkins University / ILL,"J0HNS HOPKINS UNIVERSITY,3400 N. CHARLES STREET,BALTIMORE US-MD 21218",39.3261949,-76.6208771,"3400 N Charles St, Baltimore, MD 21218, USA",Match,Google
JOHN MORITZ LIBRARY / ILL THE JOSIE HARPER CAMPUS,720 NORTH 87TH STREET OMAHA NE 68114,41.2658712,-96.0485429,"720 N 87th St, Omaha, NE 68114, USA",Match,Google
JFK Library / ILL/ 100 LIB,"Library-,816 F St.,Cheney US-WA 99004 US",47.4885163,-117.5744251,"610 1st St, Cheney, WA 99004, USA",Match,Google
JERVIS PUBLIC LIBRARY/ILL,"JERVIS PUBLIC LIBRARY,613 North Washington Street,Rome US-NY 13440-4296 US",43.2186817,-75.4540625,"613 N Washington St, Rome, NY 13440, USA",Match,Google
Jefferson Township Public Library,"1031 Weldon Road , Oak Ridge, NJ 07438",41.021066,-74.549045,"1031 Weldon Rd, Oak Ridge, NJ 07438, USA",Match,Google
JEFFERSON CTY PUBLIC LIBRARY/ILL,10500 W. 38th Ave Wheat Ridge US-CO 80033 US,39.7688692,-105.1162521,"10500 W 38th Ave, Wheat Ridge, CO 80033, USA",Match,Google
JEFFERSON CTY PUBLIC LIBRARY/ILL,10200 W. 20th Ave Lakewood CO US 80215,39.7470415,-105.1132838,"10200 W 20th Ave, Lakewood, CO 80215, USA",Match,Google
James J. Peters VA Medical Center,130 West Kingsbridge Road Bronx NY 10468 USA,40.868521,-73.9052721,"130 W Kingsbridge Rd, Bronx, NY 10468, USA",Match,Google
J.E. & L.E. Mabee Library,4301 Broadway San Antonio US-TX 78209 US,29.466944,-98.4658512,"4301 Broadway St, San Antonio, TX 78209, USA",Partial Match,Google
IONA COLLEGE / RYAN LIBRARY / ILL DEPT,"715 NORTH AVE.,RYAN LIBRARY , DEPT.,NEW ROCHELLE US-NY 10801-1890 US",40.9251932,-73.7876393,"715 North Ave, New Rochelle, NY 10801, USA",Partial Match,Google
Interlibrary Services / TAMU Libraries,"5000 TAMU,Texas A&M Univ,College Station US-TX 77843-5000 US",30.6167852,-96.3392311,"Texas A&M University, 400 Spence St, College Station, TX 77843, USA",Match,Google
Interlibrary Services / Ohio State University Libraries,"Ohio State University Libraries,1858 Neil Avenue Mall,Columbus US-OH 43210 US",39.9991926,-83.0148625,"The Ohio State University, 1858 Neil Ave, Columbus, OH 43210, USA",Match,Google
Interlibrary Services,524 College Ave. Ithaca NY 14853-4901,42.4426987,-76.4852492,"524 College Ave, Ithaca, NY 14850, USA",Partial Match,Google
Interlibrary Loans/Sibley Music Library/Eastman School of Music,"Sibley Music Library , Eastman School of Music , 27 Gibbs Street , Rochester, NY 14604",43.1576946,-77.6017884,"27 Gibbs St, Rochester, NY 14604, USA",Match,Google
William Jessup U,"Wiam Jessup University Library,2121 University Ave.,Rocklin US-CA 95765 US",38.8204128,-121.2924931,"2121 University Ave, Rocklin, CA 95765, USA",Match,Google
The Juilliard School,60 Lincoln Center Plaza New York US-NY 10023-6588 US,40.772214,-73.984987,"60 Lincoln Center Plaza, New York, NY 10023, USA",Partial Match,Google
Pensacola State College,1000 College Blvd. Pensacola Fl 32504-8998,30.4783116,-87.198096,"1000 College Blvd, Pensacola, FL 32504, USA",Partial Match,Google
Norfolk Public library,"Norfolk Public Library,1155 Pineridge Road,Norfolk US-VA 23502 US",36.86108,-76.230082,"1155 Pineridge Rd, Norfolk, VA 23502, USA",Partial Match,Google
Interlibrary Loan--Nancy DelVecchio,"HUDSON PUBLIC LIBRARY,WOOD SQUARE,HUDSON US-MA 01749 US",42.3914942,-71.5707726,"3 Washington St, Hudson, MA 01749, USA",Match,Google
Interlibrary Loan--Criss Quigley,"Gaylord Memorial Library,47 College Street,SOUTH HADLEY US-MA 01075-1403 US",42.2568883,-72.5767832,"47 College St, South Hadley, MA 01075, USA",Match,Google
Interlibrary Loan/University of Washington Libraries,"4000 15th Ave NE,Seattle US-WA 98195-2900 US",47.6608146,-122.3065751,"4000 15th Ave NE, Seattle, WA 98105, USA",Partial Match,Google
Interlibrary Loan/United States Military Academy Library,758 Cullum Rd. West Point NY 10996-1709,41.3914211,-73.9555031,"758 Cullum Rd, West Point, NY 10996, USA",Partial Match,Google
INTERLIBRARY LOAN/ELY LIBRARY/WESTFIELD STATE COLLEGE LIBRARY,"Westfield State University,577 Western Ave.,Westfield US-MA 01086 US",42.1318254,-72.7941529,"577 Western Ave, Westfield, MA 01086, USA",Match,Google
"INTERLIBRARY LOAN, WALKER LIBRARY",1500 GREENLAND DR. MURFREESBORO US-TN 37132 US,35.8520076,-86.3620194,"1500 Greenland Dr, Murfreesboro, TN 37130, USA",Partial Match,Google
"Interlibrary Loan, Polk Library / Universiy of Wisconsin, Oshkosh","Interlibrary Loan - Polk Library,801 Elmwood Avenue,Oshkosh US-WI 54901 US",44.0263501,-88.5495687,"Elmwood Ave, Oshkosh, WI 54901, USA",Match,Google
"Interlibrary Loan, Marietta College Library","215 Fifth Street,Marietta US-OH 45750 US",39.416531,-81.449069,"215 5th St, Marietta, OH 45750, USA",Match,Google
Interlibrary Loan Services / Ball State University Libraries,"Ball State University Libraries,2000 West University Avenue,Muncie US-IN 47306 US",40.2061028,-85.406986,"2000 W University Ave, Muncie, IN 47306, USA",Match,Google
Interlibrary Loan Office (U-2005F),"Homer Babbidge Library Univ of Connecticut,369 Fairfield Way,Storrs US-CT 06269 US",41.8066244,-72.2517451,"University of Connecticut, 369 Fairfield Way, Storrs, CT 06269, USA",Match,Google
Interlibrary Loan LUDKE LIBRARY / LESLEY UNIVERSITY,"Lesley University,29 Everett Street,Cambridge US-MA 02138-2790 US",42.3811758,-71.1177024,"29 Everett St, Cambridge, MA 02138, USA",Match,Google
Interlibrary Loan H. Douglas Barclay Law Library / Syracuse Universit,950 Irving Ave Syracuse US-NY 13244-6070 US,43.0362273,-76.1387337,"950 Irving Ave, Syracuse, NY 13210, USA",Partial Match,Google
Interlibrary Loan Dept. / A.Pierre Guillermin Library / Liberty Univer,1971 University Blvd. Lynchburg US-VA 24515 US,37.3535393,-79.1775812,"1971 University Blvd, Lynchburg, VA 24502, USA",Partial Match,Google
Interlibrary Loan Dept.,"Melick Library,Eureka College,301 E. College Ave.,Eureka US-IL 61530 US",40.7145307,-89.2696504,"301 E College Ave, Eureka, IL 61530, USA",Match,Google
Bethel U,"3900 Bethel Drive,St. Paul US-MN 55112 US",45.057943,-93.1616073,"3900 Bethel Dr, St Paul, MN 55112, USA",Match,Google
Interlibrary Loan Department-Earl K Long Library,"University of New Orleans,2000 Lakeshore Drive,New Orleans US-LA 70148 US",30.0286312,-90.0661764,"2000 Lakeshore Dr, New Orleans, LA 70148, USA",Match,Google
InterLibrary Loan Department,"Martin Library,159 East Market Street,York US-PA 17401 US",39.9637418,-76.7241589,"159 E Market St, York, PA 17401, USA",Match,Google
Mercer County System,"Mercer County Library System,2751 Brunswick Pike,Lawrenceve US-NJ 08648 US",40.2662976,-74.718801,"2751 Brunswick Pike, Lawrence Township, NJ 08648, USA",Match,Google
Notre Dame,",200 Winston Avenue,Baltimore US-MD 21212 US",39.3498568,-76.6169843,"200 Winston Ave, Baltimore, MD 21212, USA",Match,Google
Farmington Community,"Farmington Community Library,32737 W 12 Mile Rd,Farmington Hs US-MI 48334-3302 US",42.4979705,-83.3709079,"32737 Twelve Mile Rd, Farmington Hills, MI 48334, USA",Match,Google
Lyndon State College,"Lyndon State College Library,1001 College Rd.,PO Box 919,Lyndonve, VT 05851",44.5355567,-72.025198,"1001 College Rd, Lyndonville, VT 05851, USA",Partial Match,Google
Interlibrary Loan / Manhattan College Library,"Manhattan College Library,4513 Manhattan College Pkwy,Riverdale US-NY 10471 US",40.8899623,-73.9010623,"4513 Manhattan College Pkwy, Bronx, NY 10471, USA",Match,Google
INTERLIBRARY LOAN / MALCOLM A LOVE LIBRARY / SAN DIEGO STATE UNIVERSIT,"Resource Sharing,San Diego State University,5500 Campanile Drive,San Diego US-CA 92182-8050 US",32.7757217,-117.0718893,"5500 Campanile Dr, San Diego, CA 92182, USA",Match,Google
Florida Gulf Coast U,"Library Services,Florida Gulf Coast University,10501 FGCU Blvd. South,Ft. Myers, FL 33965-6501 -",26.4643209,-81.7733903,"10501 FGCU Blvd S, Fort Myers, FL 33965, USA",Match,Google
Interlibrary Loan / Johnson County Library,Shawnee Mission KS 66201-1333,39.02,-94.67,"Mission, KS 66201, USA",Partial Match,Google
Interlibrary Loan / Holy Family University Library,"Holy Family University Library,9801 Frankford Avenue,Philadelphia US-PA 19114-2009 US",40.0609234,-74.9873319,"9801 Frankford Ave, Philadelphia, PA 19114, USA",Match,Google
Interlibrary Loan / CLARK LIBRARY,"UNIVERSITY OF PORTLAND,5000 N WAMETTE BLVD,PORTLAND US-OR 97203-0017 US",45.5732046,-122.7275712,"5000 N Willamette Blvd, Portland, OR 97203, USA",Partial Match,Google
Interlibrary Loan / Bethlehem Public Library,"Bethlehem Public Library,451 Delaware Ave.,Delmar US-NY 12054-3042 US",42.6196879,-73.841225,"451 Delaware Ave, Delmar, NY 12054, USA",Match,Google
Utah Valley University,"800 WEST UNIVERSITY PARKWAY , OREM, UT 84058-5999",40.2773503,-111.7129554,"800 W University Pkwy, Orem, UT 84097, USA",Partial Match,Google
Hudson Valley Community College,"Hudson Valley Community College,80 Vandenburgh Avenue,Troy US-NY 12180 US",42.6967457,-73.6854979,"80 Vandenburgh Ave, Troy, NY 12180, USA",Match,Google
Interlibrary Loan - VCFALibrary,"36 College Street,Montpelier US-VT 05602 US",44.2551914,-72.5676054,"36 College St, Montpelier, VT 05602, USA",Match,Google
INTERLIBRARY LOAN Saratoga Springs Public Library,"Saratoga Springs Public Library,49 Henry Street,Saratoga Springs US-NY 12866 US",43.0809343,-73.78327,"49 Henry St, Saratoga Springs, NY 12866, USA",Match,Google
Interlibrary Loan - Pratt Institute Library,"Pratt Institute Library-Brooklyn Campus,379 DeKalb Avenue,Brooklyn US-NY 11205 US",40.6908148,-73.9649417,"200 Willoughby Ave, Brooklyn, NY 11205, USA",Match,Google
Interlibrary Loan - Mason Library (KNM)/Keene State College,"Mason Library, ,229 Main Street,Keene US-NH 03435-3201 US",42.9264742,-72.2790318,"229 Main St, Keene, NH 03431, USA",Partial Match,Google
Interlibrary Loan - Lovejoy Library,"Dept.,Southern inois Univ. Edwardsve 30 Hairpin Dr.,Edwardsve US-IL 62026-1063 US",38.7930978,-89.9979453,"1 Hairpin Dr, Edwardsville, IL 62025, USA",Partial Match,Google
INTERLIBRARY LOAN - DECKER LIBRARY Maryland art institute,"MARYLAND INSTITUTE COLLEGE OF ART,1300 WEST MOUNT ROYAL AVE,BALTIMORE US-MD 21217-4191 US",39.307555,-76.6216339,"1300 W Mt Royal Ave, Baltimore, MD 21217, USA",Match,Google
INTERLIBRARY LOAN Alvernia University,"ALVERNIA UNIVERSITY LIBRARY , 400 ST. BERNARDINE ST. , READING, PA 19607-1799",40.3112017,-75.931668,"400 Saint Bernardine St, Reading, PA 19607, USA",Match,Google
INTERLIBRARY LOAN Cleaveland State University,"CLEVELAND STATE UNIVERSITY,1860 EAST 22nd STREET,CLEVELAND US-OH 44115-2214 US",41.5024973,-81.6747185,"2121 Euclid Ave, Cleveland, OH 44115, USA",Match,Google
Concord Public Library,"CONCORD PUBLIC LIBRARY,45 GREEN STREET,CONCORD US-NH 03301 US",43.2066825,-71.5403811,"45 Green St, Concord, NH 03301, USA",Match,Google
Murray State,"203 WATERFIELD, MURRAY US-KY 42071 US",36.6002299,-88.150702,"203 Waterfield Dr, Murray, KY 42071, USA",Partial Match,Google
Vanderbilt,"VANDE BOGART LIBRARY,MONTANA STATE UNIV-NORTHERN,PO BOX 7751,HAVRE MT 59501",48.5414604,-109.6877758,"300 13th St W, Havre, MT 59501, USA",Match,Google
Tualatin Public Library,"TUALATIN PUBLIC LIBRARY,18878 SW MARTINAZZI AVE,TUALATIN US-OR 97062 US",45.3843097,-122.7583852,"18878 SW Martinazzi Ave, Tualatin, OR 97062, USA",Match,Google
Central Library,"CENTRAL LIBRARY, J-MRL,201 EAST MARKET STREET,CHARLOTTESVE,VA. 22902-5287",38.031419,-78.479933,"201 E Market St, Charlottesville, VA 22902, USA",Partial Match,Google
Nevada State,"NEVADA STATE LIBRARY AND ARCHIVES,100 N. STEWART STREET,CARSON CITY, NV 89701-4285",39.1638936,-119.7648587,"100 N Stewart St, Carson City, NV 89701, USA",Match,Google
South Central Regional Library Council,"INTERLIBRARY LOAN,SOUTH CENTRAL REGIONAL LIBRARY COUNCIL,215 NORTH CAYUGA STREET,ITHACA NY 14850,ITHACA NY US 14850",42.439973,-76.499239,"108 N Cayuga St, Clinton Hall, 3rd Floor, Ithaca, NY 14850, United States",Match,Google
Kanawha Public Library,"KANAWHA COUNTY PUBLIC LIBRARY,123 CAPITOL ST,CHARLESTON WV 25301",38.3500517,-81.6356382,"123 Capitol St, Charleston, WV 25301, USA",Match,Google
Daniel Boone,"100 W. Broadway,Columbia MO US 65203",38.9511584,-92.3398143,"100 W Broadway, Columbia, MO 65203, USA",Match,Google
Nazareth College,"Nazareth College - Library,4245 East Avenue,Rochester US-NY 14618-0950 US",43.1030175,-77.520027,"4245 East Ave, Rochester, NY 14618, USA",Match,Google
Cazenovia College,"22 Sullivan St,Cazenovia US-NY 13035 US",42.9320508,-75.8548808,"22 Sullivan St, Cazenovia, NY 13035, USA",Match,Google
GGU,"GGU University Library,536 Mission St.,San Francisco US-CA 94105 US",37.789292,-122.398982,"536 Mission St, San Francisco, CA 94105, USA",Match,Google
Niagara,5795 Lewiston Road -- PO Box 2200 Niagara University US-NY 14109-2200 US,43.1365152,-79.0353197,"5795 Lewiston Rd, Niagara Univ, NY 14109, USA",Partial Match,Google
Purchase,"Purchase College Library-SUNY,735 Anderson H Road,Purchase US-NY 10577 US",41.0466485,-73.6977661,"735 Anderson Hill Rd, Purchase, NY 10577, USA",Match,Google
Union College,"Union College Library,3800 S 48th Street,Lincoln US-NE 68506 US",40.7744685,-96.6517495,"3800 S 48th St, Lincoln, NE 68506, USA",Match,Google
Fairfax,4000 Stringfellow Road Chanty VA 20151-2627 US,38.8826348,-77.4081927,"4000 Stringfellow Rd, Chantilly, VA 20151, USA",Partial Match,Google
Winona State,"Darrell W. Krueger Library-,175 West Mark Street,Winona US-MN 55987 US",44.0461805,-91.6437541,"175 W Mark St, Winona, MN 55987, USA",Match,Google
U of Southern Indiana,"University of Southern Indiana,David L. Rice Library,8600 University Blvd.,Evansve US-IN 47712 US",37.9613678,-87.6760566,"University of Southern Indiana (USI), 8600 University Blvd, Evansville, IN 47712, USA",Match,Google
Willamette U,"Wamette University Library,900 State Street,Salem US-OR 97301 US",44.9354212,-123.0305182,"900 State St, Salem, OR 97301, USA",Match,Google
Stephens College,"Stephens College,1200 E. Broadway, box 2054,Columbia US-MO 65215 US",38.9515728,-92.3214357,"1200 E Broadway, Columbia, MO 65215, USA",Match,Google
Wilmington U,"Wilmington University Library,320 North DuPont Highway,New Castle DE US 19720",39.683014,-75.5863,"320 N Dupont Hwy, New Castle, DE 19720, USA",Match,Google
Western Illinois,"1 University Circle,Macomb US-IL 61455 US",40.4625675,-90.6817433,"1 University Cir, Macomb, IL 61455, USA",Match,Google
Zion Benton,"Zion-Benton Public Library District,2400 Gabriel Avenue,Zion US-IL 60099-2280 US",42.451058,-87.839255,"2400 Gabriel Ave, Zion, IL 60099, USA",Match,Google
Scott Community College,"Scott Community College Library,500 Belmont Road,Bettendorf US-IA 52722-6804 US",41.5475463,-90.4684046,"500 Belmont Road, Bettendorf, IA 52722, USA",Match,Google
Juniata College,"Juniata College Library,1815 Moore Street,Huntingdon US-PA 16652 US",40.5005232,-78.0173004,"Juniata College, 1700 Moore St, Huntingdon, PA 16652, USA",Match,Google
Sul Ross State U,"Wildenthal Memorial Library,Sul Ross State University,East Highway 90,Alpine TX 79832",30.3628501,-103.6523175,"79830 US-90, Alpine, TX 79830, USA",Match,Google
Marshall U,"Library Services,Marshall Univ Grad College,100 Angus E. Peyton Drive,So. Charleston WV 25303",38.357215,-81.6975901,"100 Angus E Peyton Dr, South Charleston, WV 25303, USA",Match,Google
Gaithersburg,"2-4 Metropolitan Ct.,Gaithersburg US-MD 20878 US",39.1473051,-77.2265077,"4 Metropolitan Ct, Gaithersburg, MD 20878, USA",Partial Match,Google
U of Toledo,2801 W. BANCROFT ST. TOLEDO OH 43606-3390 US,41.661644,-83.6118792,"2801 W Bancroft St, Toledo, OH 43606, USA",Partial Match,Google
Atlanta U,"Robert W. Woodruff Library of the Atlanta Univ Center,111 James P. Brawley Dr. S.W.,Atlanta US-GA 30314 US",33.7515405,-84.4135685,"111 James P Brawley Dr SW, Atlanta, GA 30314, USA",Match,Google
Rice U,"Rice Library,University of Southern Indiana,8600 University Blvd,Evansve, IN 47712",37.9613678,-87.6760566,"University of Southern Indiana (USI), 8600 University Blvd, Evansville, IN 47712, USA",Partial Match,Google
Dakota County,"Dakota County Library,1340 Wescott Road,Eagan MN US 55123",44.81778,-93.163456,"1340 Wescott Rd, Eagan, MN 55123, USA",Match,Google
Guilford College,"Hege Library, Guilford College,5800 W. Friendly Ave,Greensboro US-NC 27410 US",36.0917988,-79.8887399,"5800 W Friendly Ave, Greensboro, NC 27410, USA",Match,Google
Dekalb County,"DeKalb County Public Library,215 Sycamore St,Decatur GA US 30030",33.7737821,-84.2939609,"215 Sycamore St, Decatur, GA 30030, USA",Match,Google
Transylvania county,"Transylvania County Library,212 S. Gaston St.,Brevard,NC 28712",35.2309818,-82.7357602,"212 S Gaston St, Brevard, NC 28712, USA",Match,Google
The Brookings Institution,"The Brookings Institution,1775 Massachusetts Ave., N.W,Washington US-DC 20036 US",38.9090159,-77.0405558,"1775 Massachusetts Ave NW, Washington, DC 20036, USA",Match,Google
Interlibrary Borrowing / Massachusetts Institute of Technology / Buil,"Massachusetts Institute of Technology,Building 14-0551,77 Massachusetts Ave,Cambridge US-MA 02139-4307 US",42.360091,-71.09416,"77 Massachusetts Ave, Cambridge, MA 02139, USA",Partial Match,Google
"INDIANA UNIVERSITY, SOUTH BEND / SCHURZ LIBRARY / ILL","Schurz Library,Indiana University South Bend,1700 Mishawaka Ave,South Bend US-IN 46615 US",41.662806,-86.222076,"1700 Mishawaka Ave, South Bend, IN 46615, USA",Match,Google
INDIANA UNIVERSITY OF PENNSYLVANIA,1012 WINSLOW STREET PUNXSUTAWNEY PA 15767-4435,40.944538,-78.989813,"1012 Winslow St, Punxsutawney, PA 15767, USA",Partial Match,Google
Indiana University Kokomo Library/ ILL,",2300 South Washington St.,P.O. Box 9003,Kokomo US-IN 46904-9003 US",40.4594451,-86.1316551,"2300 S Washington St, Kokomo, IN 46902, USA",Partial Match,Google
Indiana University East Campus Library / ILL,"2325 Chester Blvd.,,Hayes Hall,Richmond US-IN 47374-1289 US",37.1795108,-77.3809531,"2325 Fort Hayes Dr, Petersburg, VA 23805, USA",Partial Match,Google
ILL-White Branch Library,"763 Butternut St.,Syracuse US-NY 13208 US",43.0615338,-76.1455156,"763 Butternut St, Syracuse, NY 13208, USA",Match,Google
ILL-Tully Free Library,"300 Orchard St.,Fayetteve US-NY 13066 US",43.025735,-76.0068632,"300 Orchard St, Fayetteville, NY 13066, USA",Partial Match,Google
ILL-OCPL,"101 Springfield Rd.,Syracuse US-NY 13214 US",43.0482577,-76.0940409,"101 Springfield Rd, Syracuse, NY 13214, USA",Match,Google
ILL-MANLIUS LIBRARY,"1 Arkie Albanese Ave.,Manlius US-NY 13104 US",43.0034937,-75.9849471,"1 Arkie Albanese Ave, Manlius, NY 13104, USA",Match,Google
ILL-LIVERPOOL PUBLIC LIBRARY,"310 Tulip St.,Liverpool US-NY 13088 US",43.1027737,-76.2078621,"310 Tulip St, Liverpool, NY 13088, USA",Match,Google
ILLl/FRIEDSAM MEMORIAL LIBRARY/ST. BONAVENTURE UNIVERSITY,"Friedsam Memorial Library,3261 W. State Road,St. Bonaventure US-NY 14778 US",42.0804476,-78.4834742,"3261 W State St, St Bonaventure, NY 14778, USA",Match,Google
ILL-ILL-MUNDY BRANCH OCPL,"1204 S. Geddes St.,Syracuse US-NY 13204",43.03556,-76.17415,"1204 S GEDDES ST, SYRACUSE, NY, 13204",Match,US Census
ILL-DEWITT COMMUNITY LIBRARY,"SHOPPINGTOWN,DEWITT NY 13214",43.0407291,-76.0641066,"3649 Erie Blvd E, Syracuse, NY 13214, USA",Match,Google
ILL-BREWERTON FREE LIBRARY,"5437 LIBRARY ST,BREWERTON NY 13029",43.2389293,-76.1423872,"5437 Library St, Brewerton, NY 13029, USA",Match,Google
ILL-Borrowing Section/Krannert Memorial Library,"University of Indianapolis,1400 E. Hanna Ave.,Indianapolis US-IN 46227 US",39.7096506,-86.1347693,"1400 E Hanna Ave, Indianapolis, IN 46227, USA",Match,Google
ILL-Benner Library,"Olivet Nazarene University,One University Avenue,Bourbonnais, IL 60914-2345 USA",41.1549071,-87.8723694,"1 University Ave, Bourbonnais, IL 60914, USA",Match,Google
ILL-Baylor University Libraries,"One Bear Place #97148,Waco US-TX 76798 US",31.552047,-97.119921,"1 Bear Trail, Waco, TX 76798, USA",Partial Match,Google
ILL-Baldwinsville P.L.,"33 E. Genesee St.,Baldwinsve US-NY 13027 US",43.159216,-76.3294233,"33 E Genesee St, Baldwinsville, NY 13027, USA",Partial Match,Google
ILL: TOWSON UNIVERSITY,"Towson University,8000 York Road,Towson US-MD 21252 US",39.3937961,-76.6091894,"8000 York Rd, Towson, MD 21252, USA",Match,Google
ILL/WESTPORT LIBRARY,20 Jesup Road Westport CT 06880 US,41.1407802,-73.3616856,"20 Jesup Rd, Westport, CT 06880, USA",Match,Google
ILL/Wells College Library,"Long LibraryWells College,170 Main Street,Aurora US-NY 13026 US",42.7442703,-76.6966188,"170 Main St, Aurora, NY 13026, USA",Partial Match,Google
ILL/W.E.B. DuBois Library,"University of Massachusetts Amherst,154 Hicks Way,Amherst US-MA 01003-9275 US",42.3908227,-72.5279501,"280 Hicks Way, Amherst, MA 01003, USA",Partial Match,Google
ILL/Van Wagenen Library / SUNY Cobleskill,"Van Wagenen Library,142 Schenectady Avenue,SUNY Coblesk,Coblesk US-NY 12043 US",42.6722023,-74.4995028,"106 Suffolk Cir, Cobleskill, NY 12043, USA",Match,Google
ILL/University of Rhode Island Library,"University of Rhode Island Library,15 Lippitt Road,Kingston US-RI 02881 US",41.4877578,-71.5288555,"15 Lippitt Rd, Kingston, RI 02881, USA",Match,Google
ILL/UNIVERSITY OF MEMPHIS LIB.,126 Ned R. McWherter Library Memphis TN,35.1208734,-89.9361224,"126 Ned Mcwherter Library, Memphis, TN 38152, USA",Match,Google
ILL/UNIV. OF ROCHESTER LIBRARY,755 LIBRARY RD ROCHESTER US-NY 14627-0055 US,43.1284773,-77.6284712,"755 Library Rd, Rochester, NY 14627, USA",Partial Match,Google
ILL/UNIV. OF LOUISVILLE LIBRARY/ WILLIAM F. EKSTROM LIBRARY,"Ekstrom Library,University of Louisve,Louisve US-KY 40292 US",38.2168925,-85.7603326,"2215 S 3rd St, Louisville, KY 40208, USA",Partial Match,Google
ILL/UNION COLLEGE LIBRARY,807 Union Street Schenectady NY 12308-3149,42.8155649,-73.9306221,"807 Union St, Schenectady, NY 12308, USA",Partial Match,Google
ILL/TOURO COLLEGE LIBRARY/MIDWOOD/FLATBUSH CAMPUS,"1602 AVENUE J,BROOKLYN, NY 11230,US",40.6251084,-73.9601197,"1602 Avenue J, Brooklyn, NY 11230, USA",Match,Google
ILL/SYRACUSE UNIVERSITY LIBRARY,"222 Waverly Ave.,Syracuse US-NY 13244-2010",43.0365902,-76.1340118,"222 Waverly Ave, Syracuse, NY 13244, USA",Partial Match,Google
ILL/SUNY COLLEGE @ CORTLAND/MEMORIAL LIBRARY,"SUNY Cortland, Memorial Library,81 Prospect Terrace,Cortland US-NY 13045 US",42.5967991,-76.1897317,"81 Prospect Terrace, Cortland, NY 13045, USA",Match,Google
ILL/ST. XAVIER UNIVERSITY,"Saint Xavier University,3700 West 103rd Street,Chicago US-IL 60655 US",41.7093667,-87.7150253,"3700 W 103rd St, Chicago, IL 60655, USA",Match,Google
ILL/St Louis Univ,"St. Louis Unviersity,3650 Lindell Blvd,St. Louis US-MO 63108 US",38.6433477,-90.2621734,"3650 Lindell Blvd, St. Louis, MO 63108, USA",Partial Match,Google
ILL/SOUTHWORTH LIBRARY/SUNY COLLEGE OF TECHNOLOGY,"SUNY Canton,34 Cornell Drive,Canton US-NY 13617 US",44.602382,-75.183458,"34 Cornell Dr, Canton, NY 13617, USA",Match,Google
ILL/Sojourner Truth Library / SUNY New Paltz,"300 Hawk Drive,NEW PALTZ US-NY 12561-2493 US",41.7418966,-74.0847663,"300 Hawk Dr, New Paltz, NY 12561, USA",Partial Match,Google
ILL/SKIDMORE COLLEGE LIBRARY,"SKIDMORE COLLEGE LIBRARY,815 NORTH BROADWAY,SARATOGA SPRINGS US-NY 12866 US",43.0972759,-73.7841811,"815 N Broadway, Saratoga Springs, NY 12866, USA",Match,Google
ILL/SARAH LAWRENCE COLLEGE,"Sarah Lawrence College Library,1 Mead Way,Bronxve US-NY 10708 US",40.9360524,-73.8433974,"1 Mead Way, Bronxville, NY 10708, USA",Partial Match,Google
ILL/Polytechnic University/Bern Dibner Library,"Polytechnic Institute of NYU. Bern Dibner Library,Brooklyn US-NY 11201 US",40.6946976,-73.9856659,"5 MetroTech Center, Brooklyn, NY 11201-3840, Brooklyn, NY 11201, United States",Match,Google
ILL/PIKE'S PEAK LIBRARY DIST./Courier C306,"- Pikes Peak Library District,P.O. Box 1579 , 20 N. Cascade Ave.,Colorado Springs US-CO 80901-1579 US",38.835247,-104.825906,"20 N Cascade Ave, Colorado Springs, CO 80903, USA",Partial Match,Google
ILL/PACE UNIVERSITY/HENRY BIRNBAUM LIBRARY,"Pace University,One Pace Plaza,New York US-NY 10038 US",40.7111197,-74.0048567,"1 Pace Plaza, New York, NY 10038, USA",Match,Google
ILL/North Park University Library,"North Park University Library,3225 W Foster Ave,Chicago US-IL 60625 US",41.9747121,-87.7106078,"3225 W Foster Ave, Chicago, IL 60625, USA",Match,Google
ILL/Newman Library/Virginia Tech.,"Virginia Tech,P.O. Box 90001,Kent St.,Blacksburg, Va 24062-9001",37.228067,-80.418603,"Virginia Polytechnic Institute and State University, 115 Kent St, Blacksburg, VA 24060, USA",Partial Match,Google
ILL/NEW CANAAN LIBRARY,"New Canaan Library,151 Main St.,New Canaan, CT 06840",41.1456241,-73.4920934,"151 Main St, New Canaan, CT 06840, USA",Match,Google
ILL/MS045/BRANDEIS UNIVERSITY LIBRARIES,"Brandeis University LTS,415 South Street,Waltham US-MA 02454 - 9110 US",42.3662517,-71.2585265,"415 South St, Waltham, MA 02453, USA",Match,Google
ILL/Mohawk Valley Library System,"858 Duanesburg Rd.,Schenectady US-NY 12306-1057 US",42.7834321,-74.0226162,"858 Duanesburg Rd, Schenectady, NY 12306, USA",Partial Match,Google
ILL/Mina Rees Library/CUNY GRAD. SCHOOL LIB.,"The Graduate Center, CUNY--Library, ,365 Fifth Ave,New York US-NY 10016 US",40.748449,-73.9834916,"365 5th Ave, New York, NY 10016, USA",Match,Google
ILL/MIDDLESEX COMMUNITY COLLEGE LIBRARY,"Middlesex Community College Library,33 Kearney Square,Lowell, MA 01852,US",42.6455606,-71.3059902,"50 Kearney Square, Lowell, MA 01852, USA",Match,Google
ILL/MIDDLEBURY COLLEGE LIBRARY,"110 Storrs Ave.,Middlebury US-VT 05753 US",44.010004,-73.1741625,"110 Storrs Ave, Middlebury, VT 05753, USA",Match,Google
ILL/Mercy College Library,"Mercy College Library,555 Broadway,Dobbs Ferry, NY 10522,US",41.021147,-73.874663,"555 Broadway, Dobbs Ferry, NY 10522, USA",Match,Google
ILL/Massasoit Community College library,"One Massasoit Blvd.,Brockton US-MA 02302 US",42.0756268,-70.9902763,"1 Massasoit Blvd, Brockton, MA 02302, USA",Match,Google
ILL/MARIST COLLEGE LIBRARY,"Marist College Library,3399 North Road,Poughkeepsie US-NY 12601 US",41.7220415,-73.9341178,"3399 North Rd, Poughkeepsie, NY 12601, USA",Match,Google
ILL/Long Island University/C.W. Post Campus,"LIU-Post Library, Interlibrary Loans,720 Northern Boulevard,Brookve US-NY 11548 US",40.8154837,-73.5887219,"720 Northern Blvd, Brookville, NY 11548, USA",Partial Match,Google
ILL/LINFIELD COLLEGE/PORTLAND CAMPUS LIBRARY,"Linfield College,Portland Campus Library,1015 NW 22nd Ave.,Portland,OR 97210",45.53141,-122.6975639,"2255 NW Northrup St, Portland, OR 97210, USA",Match,Google
ILL/Library/LaGuardia College,"Library,LaGuardia Community College,31-10 Thomson Avenue,Long Island City US-NY 11101 US",40.7432143,-73.9339734,"30-10 Thomson Ave, Long Island City, NY 11101, USA",Match,Google
ILL/Lehman College Library/CUNY,"CUNY, Lehman College Library,250 Bedford Park Boulevard West,Bronx US-NY 10468-1589 US",40.8733183,-73.8941395,"250 Bedford Park Blvd W, Bronx, NY 10468, USA",Match,Google
ILL/LA SALLE UNIVERSITY LIBRARY,"La Salle University Library,1900 W Olney Ave,Philadelphia US-PA 19141 US",40.0386083,-75.1566429,"1900 W Olney Ave, Philadelphia, PA 19141, USA",Match,Google
ILL/JAMES M. MILNE LIBRARY/SUNY ONEONTA,"108 RAVINE PARKWAY,SUNY ONEONTA,ONEONTA US-NY 13820-4014 US",42.465096,-75.065151,"108 Ravine Pkwy, Oneonta, NY 13820, USA",Match,Google
ILL/Hillman Library/University of Pittsburgh,3960 Forbes Ave Pittsburgh PA 15260 US,40.4428889,-79.954634,"3960 Forbes Ave, Pittsburgh, PA 15260, USA",Match,Google
ILL/HIGH LIBRARY/ELIZABETHTOWN COLLEGE,"Elizabethtown College,One Alpha Drive,Elizabethtown US-PA 17022-2227 US",40.1503251,-76.589792,"1 Alpha Dr, Elizabethtown, PA 17022, USA",Partial Match,Google
ILL/Hermann Memorial Library-S.C.C.C,"Hermann Memorial Library, S.C.C.C., 112 College Rd., Loch Sheldrake, NY 12759",41.763897,-74.668862,"112 College Rd, Loch Sheldrake, NY 12759, USA",Match,Google
ILL/Health Education Library NY Hospital of Queens,"Health Education Library,New York Hospital of Queens, 56-45 Main Street, Flushing, NY 11355-5095,US",40.7470438,-73.8256717,"56-45 Main St, Flushing, NY 11355, USA",Match,Google
ILL/HEALEY LIBRARY/UNIVERSITY OF MASS. - BOSTON,"100 Morrissey Blvd,Boston US-MA 02125-3393 US",42.3158163,-71.0480039,"100 William T Morrissey Blvd, Boston, MA 02125, USA",Partial Match,Google
ILL/Gumberg Library/DUQUESNE UNIVERSITY,"Duquesne Univ. Gumberg Library IDS #124,600 Forbes Ave.,Pittsburgh US-PA 15282 US",40.437349,-79.991503,"Duquesne University, 600 Forbes Ave, Pittsburgh, PA 15219, USA",Match,Google
ILL/Greenwich Library,"Greenwich Library,101 W Putnam Ave,Greenwich US-CT 06830 US",41.028905,-73.629477,"101 West Putnam Avenue, Greenwich, CT 06830, USA",Match,Google
ILL/Gerald R. Sherratt Library/Southern Utah University,"Southern Utah University,351 West University Blvd,Cedar City US-UT 84720 US",37.6764886,-113.0712005,"351 W University Blvd, Cedar City, UT 84720, USA",Match,Google
ILL/FULTON-MONTGOMERY COMMUNITY COLLEGE,"Fulton-Montgomery Community College,The Evans Library,2805 State Highway 67,Johnstown, New York 12095-3790",42.9830205,-74.2952855,"2805 NY-67, Johnstown, NY 12095, USA",Match,Google
ILL/Fordham University,"Fordham University Library,441 East Fordham Road,Bronx US-NY 10458 US",40.8612031,-73.889218,"441 E Fordham Rd, Bronx, NY 10458, USA",Match,Google
ILL/FALCONE LIBRARY/LE MOYNE COLLEGE,"Falcone Library,Le Moyne College,1419 Salt Springs Road,Syracuse US-NY 13214 US",43.0484095,-76.0905855,"Salt Springs Rd, Syracuse, NY 13214, USA",Match,Google
ILL/ERC/CLARKSON UNIVERSITY,"8 Clarkson Ave.,PO Box 5590,Potsdam US-NY 13699 US",44.6636149,-74.9974438,"8 Clarkson Ave, Potsdam, NY 13676, USA",Partial Match,Google
ILL/Edinboro University of Pennsylvania,"Edinboro University of Pennsylvania,Baron Forness Library,200 Tartan Rd.,Edinboro US-PA 16444 US",41.8706445,-80.1212769,"200 Tartan Rd, Edinboro, PA 16444, USA",Match,Google
ILL/EASTERN KENTUCKY UNIVERSITY LIBRARIES,"EASTERN KENTUCKY UNIVERSITY,521 LANCASTER AVENUE,RICHMOND US-KY 40475-3102 US",37.7353214,-84.298672,"521 Lancaster Ave, Richmond, KY 40475, USA",Match,Google
ILL/College of DuPage,"College of DuPage Library,425 Fawell Blvd.,Glen Ellyn US-IL 60137 US",41.8415539,-88.0720818,"425 Fawell Blvd, Glen Ellyn, IL 60137, USA",Match,Google
ILL/CAPE COD COMMUNITY COLLEGE/WILKENS LIBRARY,"Cape Cod Community College,Wilkens Library,2240 Iyannough Road,West Barnstable, MA 02668-1599",41.6911001,-70.3373416,"2240 Iyannough Rd, West Barnstable, MA 02668, USA",Match,Google
ILL/Burritt Library/Central CT State University,"Central CT State University,1615 Stanley Street,New Britain US-CT 06050-4010",41.693255,-72.764167,"1615 Stanley Street, New Britain, CT 06053, USA",Match,Google
ILL/Brooklyn College Library,2900 Bedford Ave Brooklyn US-NY 11210-2889 US,40.6302107,-73.9555375,"2900 Bedford Ave, Brooklyn, NY 11210, USA",Partial Match,Google
ILL/BAILEY HOWE LIBRARY/UNIVERSITY OF VERMONT,"HOWE LIBRARY,UNIVERSITY OF VERMONT,538 MAIN ST.,BURLINGTON US-VT 05405 US",44.4772763,-73.1966995,"538 Main St, Burlington, VT 05405, United States",Match,Google
ILL/Arlington Hts Mem Lib,"500 N. Dunton Ave.,Arlington Heights IL US 60004",42.0876093,-87.9835063,"500 N Dunton Ave, Arlington Heights, IL 60004, USA",Match,Google
ILL/ADELPHI UNIVERSITY/SWIRBUL LIBRARY,"Adelphi University Swirbul Library,1 South Avenue,Garden City US-NY 11530 US",40.7214539,-73.653345,"Adelphi University, 1 South Ave, Garden City, NY 11530, United States",Match,Google
ILL/ Zimmerman Library / University of New Mexico,1 University of New Mexico Albuquerque US-NM 87131-0001 US,35.0843187,-106.6197812,"Albuquerque, NM 87131, USA",Match,Google
ILL/ Univ of North Texas Libr,"Univ of North Texas Libraries,1155 Union Circle #305190,Denton US-TX 76203-5017 US",33.207488,-97.1525862,"1155 Union Cir, Denton, TX 76205, USA",Match,Google
ILL/ Robert E. Kennedy Library,1 Grand Ave. San Luis Obispo CA 93407-0603 US,35.3004871,-120.6578793,"1 Grand Ave, San Luis Obispo, CA 93405, USA",Partial Match,Google
ILL/ Rm #202/ Weinberg Memorial Library,"University of Scranton,Monroe Ave at Linden Street,Scranton US-PA 18510-4634 US",41.4060617,-75.656533,"800 Linden St, Scranton, PA 18510, USA",Match,Google
ILL/ Queens Borough Public Lib,"89-11 Merrick Blvd,Jamaica US-NY 11432 US",40.7077494,-73.7948268,"89-11 Merrick Blvd, Jamaica, NY 11432, USA",Match,Google
ILL/ PORTLAND PUBLIC LIBRARY,"Portland Public Library,5 Monument Square,Portland US-ME 04101 US",43.6577701,-70.259254,"5 Monument Way, Portland, ME 04101, USA",Match,Google
ILL/ LLOYD SEALY LIBRARY / JOHN JAY COLLEGE,"524 West 59th St.,New York US-NY 10019 US",40.7707237,-73.9892342,"524 W 59th St, New York, NY 10019, USA",Match,Google
ILL/ Fordham University Law Library,"Fordham Law School, The Maloney Library,150 West 62nd Street,New York US-NY 10023 US",40.7715478,-73.9849293,"150 W 62nd St, New York, NY 10023, USA",Match,Google
ILL/ East Greenbush Community Library,"East Greenbush Community Library,10 Community Way,East Greenbush US-NY 12061 US",42.619124,-73.695531,"10 Community Way, East Greenbush, NY 12061, USA",Match,Google
St. Joseph's College Library,"St. Joseph's College Library,Attn:Robert Lasner, 222 Clinton Ave.,Brooklyn,NY 11205",40.6913413,-73.9687205,"222 Clinton Ave, Brooklyn, NY 11205, USA",Match,Google
Middlesex Community College,"Middlesex Community College,Springs Rd.,Bedford, MA 01730,US",42.5246,-71.273739,"591 Springs Rd, Bedford, MA 01730, USA",Match,Google
"ILL, West Texas A&M University","Cornette Library,WTAMU Box 60748 , 2403 Russell Long Blvd,Canyon US-TX 79016 US",34.982687,-101.914288,"26th St, Canyon, TX 79016, USA",Match,Google
"ILL, NMSU, ZUHL LIBRARY",", NMSU, ZUHL LIBRARY,1305 Frenger Mall MSC 3475,Las Cruces, NM 88003,, NMSU, ZUHL LIBRARY,1305 Frenger Mall",32.281567,-106.749601,"2911 McFie Cir, Las Cruces, NM 88003, USA",Match,Google
ILL Wiener Rogers Law Library,"4505 Maryland Parkway,Las Vegas US-NV 89154-1080 US",36.1053148,-115.1388739,"4505 S Maryland Pkwy, Las Vegas, NV 89154, USA",Partial Match,Google
ILL- Wentworth Institute of Technology,"Alumni Library,Interlibrary Loan Services,550 Huntington Avenue,Boston US-MA 02115 US",42.3356235,-71.0955025,"550 Huntington Ave, Boston, MA 02115, USA",Match,Google
ILL Wellesley College / Clapp Library,"Wellesley College Library,106 Central Street,Wellesley US-MA 02481-8275",42.2938663,-71.3028783,"106 Central St, Wellesley, MA 02481, USA",Match,Google
ILL- W. Frank Steely Library,"Highland Heights, KY, 41099-6101 US",39.0350911,-84.4540484,"Newport, KY 41099, USA",Partial Match,Google
ILL- Vi Tasler Learning Resource Center,"City University of Seattle,521 Wall Street, Ste. 100,Seattle US-WA 98121 US",47.6178002,-122.3444475,"521 Wall St, Seattle, WA 98121, USA",Match,Google
ILL UNI Rod Library,"1227 W 27th Street,Cedar Falls US-IA 50613-3675 US",42.513117,-92.4656488,"1227 W 27th St, Cedar Falls, IA 50614, USA",Partial Match,Google
ILL U of Montevallo Library,75 College Dr. Montevallo AL 35115 US,33.1073601,-86.8652916,"75 College Dr, Montevallo, AL 35115, USA",Match,Google
Attorney General's Library,"Attorney General's Library,25 Market St.,P.O. Box 115,Trenton, NJ 08625-0115",40.213594,-74.76396,"25 Market St, Trenton, NJ 08611, USA",Partial Match,Google
ILL Section/Atlantic County Library,"40 Farragut Ave,Mays Landing US-NJ 08330-1750 US",39.4509842,-74.7254059,"40 Farragut Ave, Mays Landing, NJ 08330, USA",Partial Match,Google
ILL REED COLLEGE LIBRARY,"3203 SE Woodstock Blvd,Portland US-OR 97202 US",45.4809642,-122.6301455,"3203 SE Woodstock Blvd, Portland, OR 97202, USA",Match,Google
ILL POLLACK LIBRARY / YESHIVA UNIVERSITY,"INTERLIBRARY LOAN,YESHIVA UNIVERSITY,500 WEST 185TH STREET,NEW YORK US-NY 10033 US",40.8504852,-73.9291068,"500 W 186th St, New York, NY 10033, USA",Match,Google
ILL Penfield Library SUNY Oswego,"7060 State Rt. 104,Oswego US-NY 13126 US",43.4549344,-76.5385128,"7060 NY-104, Oswego, NY 13126, USA",Match,Google
ILL Oregon State Library,"OREGON STATE LIBRARY,250 WINTER ST. NE,SALEM US-OR 97301-3950 US",44.939859,-123.030855,"250 Winter St NE, Salem, OR 97301, USA",Match,Google
ILL Office Bobst Library / New York University,"New York University Bobst Library,70 Washington Square South,New York US-NY 10012 US",40.7295147,-73.9971878,"70 Washington Square S, New York, NY 10012, USA",Match,Google
ILL Northwestern University Library,"Northwestern University Library,1970 Campus Drive,Evanston US-IL 60208-2300 US",42.0530798,-87.6747849,"1970 Campus Dr, Evanston, IL 60208, USA",Match,Google
ILL Moon Library / ILL / SUNY Environ. Sci. & For.,"SUNY College of Environmental Science & Forestry,1 Forestry Dr.,Syracuse US-NY 13210 US",43.0344612,-76.1369148,"1 Forestry Dr, Syracuse, NY 13210, USA",Match,Google
ILL LIBRARY/SUNY INST TECHNOLOGY,"SUNY Poly,100 Seymour Road,Utica US-NY 13502 US",43.1355755,-75.2298915,"Kunsela Hall, 100 Seymour Ave, Utica, NY 13502, USA",Match,Google
ILL LIBRARY THE COLLEGE OF SAINT ROSE,"432 WESTERN AVE,Albany US-NY 12203-1490",42.6641331,-73.7854398,"432 Western Ave, Albany, NY 12203, USA",Partial Match,Google
ILL Library Media Center Bellevue Community College,"Bellevue College,3000 Landerholm Circle SE,Bellevue US-WA 98007 US",47.5855425,-122.1484161,"3000 Landerholm Cir SE, Bellevue, WA 98007, USA",Match,Google
Grand Valley State University,"061 LIB,1 CAMPUS DR,ALLENDALE US-MI 49401-9403 US",42.9638005,-85.8883162,"Cook-Dewitt Center, 1 Campus Dr, Allendale, MI 49401, USA",Partial Match,Google
Cincinatti State Tech and Community College,"Cincinnati State Technical and Community College,3520 Central Parkway,Cincinnati US-OH 45223 US",39.1495698,-84.5365601,"3520 Central Pkwy, Cincinnati, OH 45223, USA",Match,Google
Grand Canyon University,"Grand Canyon University,3300 W. Camelback Rd.,Phoenix US-AZ 85017-3030 US",33.5105204,-112.1299582,"3300 W Camelback Rd, Phoenix, AZ 85017, USA",Match,Google
ILL Dickerman Library / Wadsworth Center,"Empire State Plaza, Albany ,NY 12201-0509",42.650122,-73.759868,"Madison Ave & Swan Street, Albany, NY 12242, USA",Partial Match,Google
Ridgefield Public Library,"Ridgefield Free Public Library,527 Morse Ave,Ridgefield, NJ 07657 US-NJ 07657",40.832213,-74.0053251,"527 Morse Ave, Ridgefield, NJ 07657, USA",Match,Google
ILL Dept/WESTFIELD PUBLIC LIBRARY,"Margaret E. Heggan Library,606 Delsea Drive,Sewell US-NJ 08080",39.74707,-75.1125793,"606 Delsea Dr, Sewell, NJ 08080, USA",Match,Google
ILL Dept/Richter Library,"University of Miami,1300 Memorial Dr., P.O. Box 248214,Coral Gables US-FL 33124-0320 US",25.721262,-80.27865,"1300 Memorial Dr, Miami, FL 33146, USA",Partial Match,Google
Ithaca College,"Ithaca College Library,953 Danby Road,Ithaca US-NY 14850 US",42.421658,-76.498564,"953 Danby Rd, Ithaca, NY 14850, USA",Match,Google
ILL DEPT/HSC LIBRARY/ILL Dept./HSC L3-136,100 Nicolls Road Stony Brook US-NY 11794-3339 US,40.9154724,-73.1227212,"100 Nicolls Rd, Stony Brook, NY 11790, USA",Partial Match,Google
William Patterson University,45 Reinhardt Road Wayne US-NJ 07470,40.9308176,-74.2021876,"45 Reinhardt Rd, Wayne, NJ 07470, USA",Match,Google
"ILL Dept./Wisser Memorial Library, New York Institute of Technology","New York Institute of Technology,Northern Blvd,Old Westbury US-NY 11568-8000 US",40.8114197,-73.605301,"Northern Blvd, Old Westbury, NY 11568, USA",Match,Google
"ILL Dept. LR&TSST. CLOUD STATE UNIVERSITY720-4TH AVE. S.ST. CLOUD, MN","St. Cloud State University Library,720 4th Ave. S,St Cloud US-MN 56301-4498 US",45.5511863,-94.1515138,"720 4th Ave S, St Cloud, MN 56301, USA",Match,Google
ILL Dept. / Bertrand Library / Bucknell Univ.,"Bertrand Library , Coleman Hall Road, Bucknell Univ. , Lewisburg, PA 17837 , U.S.A.",40.9543429,-76.8826275,"701 Moore Ave, Lewisburg, PA 17837, USA",Match,Google
ILL DEPT.,"140 SOCKANOSSET CROSS RD.,CRANSTON, US-RI 02920 US",41.754401,-71.456979,"140 Sockanosset Cross Rd, Cranston, RI 02920, USA",Match,Google
Barrington Public,"BARRINGTON PUBLIC LIBRARY,281 COUNTY RD,BARRINGTON, RI 02806",41.7404848,-71.3071069,"281 County Rd, Barrington, RI 02806, USA",Match,Google
Hobart & William Smith Colleges,"Hobart & Wiam Smith Colleges,334 Pulteney St.,Geneva US-NY 14456 US",42.8591531,-76.9844868,"300 Pulteney St, Geneva, NY 14456, USA",Match,Google
Plymouth Public,"Plymouth Public Library,132 South St.,Plymouth US-MA 02360-2947 US",41.9428583,-70.6570109,"132 South St, Plymouth, MA 02360, USA",Match,Google
University of Pennsylvania,"University of Pennsylvania Libraries,3420 Walnut Street,Philadelphia US-PA 19104-6277 US",39.9522188,-75.1932137,"Philadelphia, PA 19104, USA",Match,Google
Seekonk Public,"Seekonk Public Library,410 Newman Ave.,Seekonk US-MA 02771-4605 US",41.8532924,-71.3294105,"410 Newman Ave, Seekonk, MA 02771, USA",Match,Google
Attleboro Public,"Attleboro Public Library,74 No. Main St.,Attleboro US-MA 02703-2280 US",41.9456738,-71.2867848,"74 N Main St, Attleboro, MA 02703, USA",Match,Google
Corning Museum of Glass,"Dept.,Corning Museum of Glass,Five Museum Way,Corning US-NY 14830-2253 US",42.1498045,-77.0541959,"1 Museum Way, Corning, NY 14830, USA",Match,Google
GWU,"GWU Virginia Science & Technology Campus Library,44983 Knoll Square #181,Ashburn, VA 20147",39.054824,-77.4441676,"44983 Knoll Square, Ashburn, VA 20147, USA",Match,Google
ENMU,"Golden Library,ENMU,1500 South Avenue K,Station 32,Portales, NM 88130",34.172438,-103.347412,"1500 S Avenue K, Station 32, Portales, NM 88130, United States",Match,Google
ILL Dept Stevenson Library / Lock Haven University,"Stevenson Library - ,401 N. Fairview St.,Lock Haven US-PA 17745",41.1423205,-77.4621475,"401 N Fairview St, Lock Haven, PA 17745, USA",Match,Google
ILL DEPT REQUEST #11948,"STOW-MUNROE FALLS PUBLIC LIBRARY,3512 DARROW ROAD,STOW US-OH 44224-4097 US",41.1608261,-81.440856,"3512 Darrow Rd, Stow, OH 44224, USA",Match,Google
ILL DEPT / BURLINGTON COUNTY LIBRARY,"5 Pioneer Blvd,Westampton US-NJ 08060 US",40.0146573,-74.8206963,"5 Pioneer Blvd, Westampton, NJ 08060, USA",Match,Google
ILL Department / Anne Arundel County Public Library,"Anne Arundel County Public Library,1410 West St.,Annapolis US-MD 21401 US",38.9787951,-76.5151899,"1410 West St, Annapolis, MD 21401, USA",Match,Google
Bucks County Public,"Bucks County Free Library,150 South Pine Street,Doylestown US-PA 18901 US",40.307998,-75.125814,"150 S Pine St, Doylestown, PA 18901, USA",Match,Google
ILL College of Mount Saint Vincent / Elizabeth Seton Library,"College of Mount Saint Vincent,6301 Riverdale Avenue,Bronx US-NY 10471 US",40.9124186,-73.9030113,"6301 Riverdale Ave, Bronx, NY 10471, USA",Match,Google
ILL- Cohen Library NAC 2-311 / City College of NY,160 Convent Ave. New York US-NY 10031 US,40.8217036,-73.9478749,"160 Convent Ave, New York, NY 10031, USA",Match,Google
ILL BRIGGS LIBRARY,"1300 NORTH CAMPUS DR , BROOKINGS US-SD 57007-1098 US",44.3211674,-96.7842759,"1300 N Campus Dr, Brookings, SD 57006, USA",Partial Match,Google
ILL BORROWING/AMERICAN UNIVERSITY LIBRARY,"American University Library,Washington US-DC 20016-8046 US",38.935977,-77.088937,"4400 Massachusetts Ave NW, Washington, DC 20016, USA",Match,Google
ILL Borrowing,"UNC Charlotte,9201 University City Blvd.,Charlotte US-NC 28223 US",35.3070929,-80.735164,"9201 University City Blvd, Charlotte, NC 28223, USA",Match,Google
University of SOuth Carolina,"1322 Greene Street,University of South Carolina,Columbia US-SC 29208 US",33.996398,-81.0291814,"1322 Greene St, Columbia, SC 29208, USA",Match,Google
ILL /Theodore R MCKELDIN LIBRARY,"UNIVERSITY OF MARYLAND,7649 LIBRARY LANE,COLLEGE PARK US-MD 20742-7011 US",38.985966,-76.944656,"7649 Library Ln, College Park, MD 20742, USA",Partial Match,Google
ILL /Broome County Public Library,"185 Court Street,Binghamton US-NY 13901-3503 US",42.1002789,-75.9065314,"185 Court St, Binghamton, NY 13901, USA",Partial Match,Google
ILL / Wilson Library / Univ. of La Verne,"2040 Third St. , La Verne CA 91750-4436.",34.1000385,-117.7712009,"2040 3rd St, La Verne, CA 91750, USA",Partial Match,Google
ILL / W J Houghton Library / Houghton College,1 WARD AVE. HOUGHTON US-NY 14744 US,42.8922492,-78.8317081,"1 Houghton Ave, Buffalo, NY 14212, USA",Partial Match,Google
ILL / St.Michael's College Library,"Saint Michael's College Library,One Winooski Park,Colchester US-VT 05439 US",44.4944757,-73.1670148,"1 Winooski Park, Colchester, VT 05446, USA",Match,Google
ILL / Roger Williams University Library,"One Old Ferry Road,Bristol US-RI 02809-2921 US",41.6506922,-71.2588999,"1 Old Ferry Rd, Bristol, RI 02809, USA",Partial Match,Google
ILL / Pennsylvania State University,"Penn State University Libraries,127 Paterno Library, Curtin Rd.,University Park US-PA 16802 US",40.7976012,-77.866382,"Penn State University, 107 Pattee library Rd, State College, PA 16801, USA",Match,Google
ILL / OCEAN COUNTY LIBRARY,"Ocean County Library,Ocean County Library,101 Washington Street,Toms River US-NJ 08753 US",39.9523537,-74.1957355,"101 Washington St, Toms River, NJ 08753, USA",Match,Google
ILL / Murphy Lib / UW-La Crosse,"Murphy Lib,1631 Pine St.,UW-La Crosse,La Crosse, WI 54601",43.8156565,-91.2318264,"1631 Pine St, La Crosse, WI 54601, USA",Match,Google
ILL / MILO DEPT. / ENOCH PRATT FREE LIBRARY,"Southern Maryland Regional Library,PO Box 459,Charlotte Hall US-MD 20622 US",38.4739672,-76.7764345,"37600 New Market Rd, Charlotte Hall, MD 20622, USA",Match,Google
ILL / Marian Library / Daemen College,"4380 Main St,Amherst US-NY 14226 US",42.964884,-78.789625,"4380 Main St, Buffalo, NY 14226, USA",Match,Google
ILL / Main Library / University of Iowa,"University of Iowa Libraries,125 W Washington St,Iowa City US-IA 52242 US",41.659491,-91.538409,"The University of Iowa, 125 W Washington St, Iowa City, IA 52242, USA",Match,Google
ILL / JAMES V. BROWN LIBRARY,"James V. Brown Library,19 E 4th St.,Wiamsport PA 17701",41.242567,-77.00147,"19 E 4th St, Williamsport, PA 17701, USA",Match,Google
ILL / Harleigh Trecker Library,"1800 Asylum Ave, West Hartford ,CT 06117 US",41.7799342,-72.7405335,"1800 Asylum Ave, West Hartford, CT 06117, USA",Match,Google
ILL / HAMILTON COLLEGE LIBRARY,198 College H Road Clinton NY 13323 US,43.0510679,-75.4095608,"198 College Hill Rd, Clinton, NY 13323, USA",Partial Match,Google
ILL / Cushwa-Leighton Lib.,"Saint Mary's College,State Road 933 , 114 Cushwa-Leighton Library,Notre Dame US-IN 46556-5001 US",41.7000517,-86.2501014,"IN-933, Notre Dame, IN 46556, USA",Partial Match,Google
ILL / CASE LIBRARY / COLGATE UNIVERSITY,"13 Oak Drive,Hamilton US-NY 13346 US",42.822465,-75.541671,"13 Oak Dr, Hamilton, NY 13346, USA",Match,Google
ILL / Campbell County Public Library,"Campbell County Public Library,901 E. Sixth Street,Newport US-KY 41071 US",39.0967806,-84.4854356,"901 E 6th St, Newport, KY 41071, USA",Match,Google
ILL / Babson Library / Springfield College,"Springfield College,263 Alden Street,Springfield US-MA 01109 US",42.1022292,-72.5565631,"263 Alden Street, Springfield, MA 01109, United States",Match,Google
ILL / ACCESS SERVICES DEPARTMENT / KNIGHT LIBRARY,"Knight Library, ,1501 Kincaid St.,Eugene US-OR 97403-1299 US",44.04332,-123.07773,"1501 Kincaid St, Eugene, OR 97403, USA",Match,Google
ILL / LINCOLN LAND COMMUNITY COLLEGE / ILDS: RPLS # 3,"5250 Shepherd Road,Springfield IL US 62794-9256",39.7229394,-89.6159231,"5250 Shepherd Rd, Springfield, IL 62703, USA",Partial Match,Google
ILL / Lemieux Library Seattle University,"SEATTLE UNIVERSITY LIBRARY,901 12TH AVE,SEATTLE US-WA 98122-1090 US",47.6092282,-122.3177135,"901 12th Ave, Seattle, WA 98122, USA",Match,Google
ILL - WILSON LIBRARY / WESTERN WASHINGTON UNIVERSITY,"WESTERN WASHINGTON UNIVERSITY,516 HIGH ST.,BELLINGHAM WA 98225-9103",48.7335079,-122.4873017,"516 High Street, Bellingham, WA 98225, USA",Match,Google
ILL - UNIVERSITY OF ST. THOMAS LIBRARIES,"Univ of St Thomas, O'Shaughnessy-Frey Library,2115 Summit Av,St Paul US-MN 55105-1096 US",44.9441221,-93.1897139,"2115 Summit Ave, St Paul, MN 55105, USA",Partial Match,Google
ILL - Univ. of Missouri-St. Louis,"Thomas Jefferson Library - ,One University Boulevard,St. Louis US-MO 63121-4499 US",38.7101379,-90.3111075,"1 University Boulevard, St. Louis, MO 63121, USA",Partial Match,Google
ILL - The LuEsther T. Mertz Library,"The New York Botanical Garden,2900 Southern Blvd.,Bronx US-NY 10458-5126 US",40.862452,-73.8802382,"New York Botanical Garden, 2900 Southern Blvd, Bronx, NY 10458, USA",Match,Google
ILL - Shoen Library,"17600 Pacific Highway,Marylhurst US-OR 97036-0261 US",45.3973579,-122.6520499,"17600 Pacific Hwy, Marylhurst, OR 97036, USA",Partial Match,Google
ILL - library/Antioch University New England,"Library - ,40 Avon St,Keene, NH 03431-3516",42.9319751,-72.2940967,"40 Avon St, Keene, NH 03431, USA",Partial Match,Google
ILL -- LIBRARY / FASHION INSTITUTE OF TECHNOLOGY,"FASHION INSTITUTE OF TECHNOLOGY,227 West 27th Street Room E528,NEW YORK US-NY 10001 US",40.747484,-73.995082,"227 W 27th St, New York, NY 10001, USA",Match,Google
ILL - B. Thomas Golisano Library,"Roberts Wesleyan College,2301 Westside Drive,Rochester US-NY 14624 US",43.12574,-77.798531,"2301 Westside Dr, Rochester, NY 14624, USA",Match,Google
ILL - Alumnae Library,"291 Springfield Street,Chicopee US-MA 01013 US",42.1417644,-72.60148,"291 Springfield St, Chicopee, MA 01013, USA",Match,Google
ILL /UTICA COLLEGE LIBRARY,"Utica College Library,1600 Burrstone Road,Utica US-NY 13502 US",43.095173,-75.2712226,"1600 Burrstone Rd, Utica, NY 13502, USA",Match,Google
Spaulding U,"Spalding University Library,853 Library Lane,Louisve US-KY 40203-2170 US",38.2423947,-85.7578652,"853 Library Ln, Louisville, KY 40203, USA",Partial Match,Google
Old Dominion,"Perry Library , Old Dominion University , 4427 Hampton Blvd , Norfolk, VA 23529-0256",36.884059,-76.303859,"4427 Hampton Blvd, Norfolk, VA 23508, USA",Partial Match,Google
Dickinson College,"P.O.Box 1773,UPS Ground: 5 N. Orange St.,Carlisle US-PA 17013 US",40.2035022,-77.2059712,"5 N Orange St, Carlisle, PA 17013, USA",Match,Google
University of Missouri-Columbia,"J. Otto Lottes Health Sciences Library,1 Hospital Drive,University of Missouri-Columbia,Columbia, MO 65212",38.9381593,-92.3285858,"1 Hospital Dr, Columbia, MO 65212, USA",Match,Google
OSU,"900 N. Portland , Oklahoma City, Ok 73107",35.4709331,-97.5812857,"900 N Portland Ave, Oklahoma City, OK 73107, USA",Partial Match,Google
Depaul U,"DePaul Univ. Library ,2350 N. Kenmore Ave.,Chicago US-IL 60614 US",41.9249851,-87.6552769,"2350 N Kenmore Ave, Chicago, IL 60614, USA",Match,Google
Nazarene College,"Nease Library Eastern Nazarene College,23 East Elm Ave.,Quincy US-MA 02170 US",42.2706909,-71.0126545,"23 E Elm Ave, Quincy, MA 02170, USA",Match,Google
Bryant U,"Douglas and Judith Krupp Library,Bryant University,1150 Douglas Pike,Smithfield US-RI 02917 US",41.9212074,-71.5378618,"Bryant University, 1150 Douglas Pike, Smithfield, RI 02917, USA",Partial Match,Google
Albany Public,"Albany Public Library,161 Washington Avenue,Albany US-NY 12210-2303 US",42.656601,-73.762094,"161 Washington Ave, Albany, NY 12210, USA",Match,Google
Broward COunty,"BROWARD COUNTY MAIN LIBRARY,100 S. ANDREWS AVE.,FORT LAUDERDALE US-FL 33301 US",26.1208469,-80.1430422,"100 S Andrews Ave, Fort Lauderdale, FL 33301, USA",Match,Google
Salt Lake County,"8030 South 1825 West,West Jordan US-UT 84088 US",40.6052621,-111.9424315,"8030 S 1825 W, West Jordan, UT 84088, USA",Match,Google
Tacoma Community College,"Tacoma Community College Library,6501 South 19th Street,Tacoma US-WA 98466-6100 US",47.2486206,-122.5240493,"6501 South 19th Street, Tacoma, WA 98466, USA",Match,Google
Bangor Public,": Bangor Public Library,145 Harlow St.,Bangor US-ME 04401 US",44.8044011,-68.7715025,"145 Harlow St, Bangor, ME 04401, USA",Match,Google
FLITE,1010 Campus Drive Big Rapids US-MI 49307 US,43.6876907,-85.4820515,"1010 Campus Dr, Big Rapids, MI 49307, USA",Match,Google
CTouro Law,"GOULD LAW LIBRARY,TOURO LAW CENTER,255 EASTVIEW DRIVE,CENTRAL ISLIP, NY,11722",40.76219,-73.187972,"225 Eastview Dr, Central Islip, NY 11722, USA",Match,Google
Bradly U,"1525 W. Bradley Ave.,Peoria US-IL 61625 US",40.6963882,-89.6172956,"1525 W Bradley Ave, Peoria, IL 61606, USA",Partial Match,Google
Dayton Metro,"215 E Third St,Dayton US-OH 45402 US",39.7605486,-84.1878269,"215 E 3rd St, Dayton, OH 45402, USA",Match,Google
Poughkeepsie,"ADRIANCE MEMORIAL LIBRARY PPLD,93 Market St,Poughkeepsie US-NY 12601 US",41.70054,-73.930194,"93 Market St, Poughkeepsie, NY 12601, USA",Match,Google
Chatham U,"Chatham University,1 Woodland Road,Pittsburgh US-PA 15232 US",40.4482193,-79.9242625,"1 Woodland Rd, Pittsburgh, PA 15232, USA",Match,Google
Coyle Free Lib.,"FCLS - Coyle Free Library,102 N Main St,Chambersburg US-PA 17201 US",39.9392327,-77.6606277,"102 N Main St, Chambersburg, PA 17201, USA",Match,Google
Nova Southestern U,"Nova Southeastern Univ Law Library,3305 College Ave,Ft Lauderdale US-FL 33314 US",26.078936,-80.2462665,"3301 College Ave, Fort Lauderdale, FL 33314, USA",Match,Google
Bethlehem Public,"Bethlehem Area Public Library,11 W Church St,Bethlehem US-PA 18018 US",40.6183089,-75.3790404,"11 W Church St, Bethlehem, PA 18018, USA",Match,Google
Saint Joseph's U,"Library- Interlibrary Loan,5600 City Avenue,Philadelphia US-PA 19131 US",39.9943417,-75.2385171,"5600 City Ave, Philadelphia, PA 19131, USA",Match,Google
Minnesota State,"1501 State St.,Marshall US-MN 56258 US",44.4541149,-95.7599734,"1501 State St, Marshall, MN 56258, USA",Match,Google
Claremont College,"CLAREMONT COLLEGES Library,The Claremont Colleges,800 N. Dartmouth Ave,Claremont US-CA 91711-3991 US",34.1021211,-117.7123149,"800 N Dartmouth Ave, Claremont, CA 91711, USA",Match,Google
U of Maryland,"Information & Library Services, Suite 1500,University of Maryland University College ,1616 McCormick Drive,Largo, MD 20774",38.91265,-76.847599,"1616 McCormick Dr, Upper Marlboro, MD 20774, USA",Match,Google
NDSU LIbrary,"NDSU Libraries Dept 2080,PO Box 6050,Fargo US-ND 58108-6050 US",46.8908489,-96.8013066,"Library, Fargo, ND 58102, USA",Partial Match,Google
Darien,"Darien Library,1441 Post Road,Darien US-CT 06820 US",41.0687723,-73.4782658,"1441 Post Rd, Darien, CT 06820, USA",Match,Google
Bowling Green State U,"BOWLING GREEN STATE UNIVERSITY,1001 E WOOSTER,BOWLING GREEN US-OH 43403-0170 US",41.3754682,-83.6409753,"McFall Center, 110 McFall Center E Wooster St, Bowling Green, OH 43403, USA",Partial Match,Google
Cambell Lib.,"Campbell Library,201 Mullica H Road,Glassboro US-NJ 08028-1701 US",39.7090928,-75.1190762,"Campbell Library, 215 Mullica Hill Rd, Glassboro, NJ 08028, USA",Partial Match,Google
Manhattan School of Music,"The Peter Jay Sharp Library,Manhattan School of Music,120 Claremont Ave, New York NY 10027",40.8124329,-73.9614844,"120 Claremont Ave, New York, NY 10027, USA",Match,Google
St. Norbert College,"MULVA LIBRARY-,100 GRANT STREET,DE PERE US-WI 54115 US",44.44485,-88.0663767,"316 3rd St, De Pere, WI 54115, USA",Match,Google
Colorado school of mines,"ARTHUR LAKES LIBRARY,COLORADO SCHOOL OF MINES,GOLDEN, CO 80401",39.7514628,-105.223285,"1400 Illinois St, Golden, CO 80401, USA",Match,Google
Chelsea,"Chelsea District Library,221 South Main Street,Chelsea US-MI 48118 US",42.3167019,-84.0190816,"221 S Main St, Chelsea, MI 48118, USA",Match,Google
England Run,"806 Lyons Blvd,Fredericksburg US-VA 22406 US",38.3627758,-77.4976687,"806 Lyons Blvd, Fredericksburg, VA 22406, USA",Match,Google
Wynesburg U,"Waynesburg University,51 W. College St.,Waynesburg US-PA 15370 US",39.8991472,-80.1865976,"51 W College St, Waynesburg, PA 15370, USA",Match,Google
Regent U,"REGENT UNIVERSITY LIBRARY,1000 REGENT UNIVERSITY DRIVE,VIRGINIA BEACH US-VA 23464-9894 US",36.8013502,-76.1969459,"1226, 1230 Regent University Dr, Virginia Beach, VA 23464, United States",Match,Google
Nashville public,"NASHVE PUB LIB,615 CHURCH ST,NASHVE TN 37219",36.162117,-86.781747,"615 Church St, Nashville, TN 37219, USA",Match,Google
Barrington Public,"Barrington Area Library,505 N. Northwest Hwy.,Barrington, IL 60010",42.159425,-88.127628,"505 N Northwest Hwy, Barrington, IL 60010, USA",Match,Google
Stonehill College,"Stoneh College Library,320 Washington St, North Easton, MA 02357-4015",42.0656195,-71.0871507,"320 Washington St, North Easton, MA 02356, USA",Partial Match,Google
Nanini Branch,"Nanini Branch Library,7300 N Shannon Rd.,Tucson AZ US 85741",32.339864,-111.028143,"7300 N Shannon Rd, Tucson, AZ 85741, USA",Match,Google
Salisbury U,"SALISBURY UNIVERSITY,1101 CAMDEN AVE.,SALISBURY US-MD 21801 US",38.3457125,-75.6046217,"1101 Camden Ave, Salisbury, MD 21801, USA",Match,Google
Des Plains Public,"Des Plaines Public Library,1501 Ellinwood St.,Des Plaines US-IL 60016 US",42.0404226,-87.8871992,"1501 Ellinwood Ave, Des Plaines, IL 60016, USA",Match,Google
Western New England U,"Western New England Univ.,1215 Wilbraham Road,Springfield US-MA 01119 US",42.1149784,-72.5186855,"1215 Wilbraham Rd, Springfield, MA 01119, USA",Match,Google
Harris Beach,"Library,Harris Beach PLLC,99 Garnsey Road,Pittsford, NY 14534",43.051352,-77.4647296,"99 Garnsey Rd, Pittsford, NY 14534, USA",Match,Google
Ferguson,"Ferguson Library, One Public Library Plaza,Stamford,CT. 06904",41.0557935,-73.5391596,"1 Public Library Plaza, Stamford, CT 06901, USA",Match,Google
Bryant,"The Bryant Library,2 Paper M Road,Roslyn NY 11576",40.798217,-73.646786,"2 Paper Mill Rd, Roslyn, NY 11576, United States",Match,Google
Gardner-Webb U,"Gardner-Webb University Library,P.O. Box 836,110 West Branch Avenue,Boiling Springs, NC 28017",35.247563,-81.670737,"110 S Main St, Boiling Springs, NC 28017, USA",Match,Google
college of saint mary,"COLLEGE OF SAINT MARY LIBRARY,7000 MERCY ROAD,OMAHA NE 68106",41.2399516,-96.0216555,"7000 Mercy Rd, Omaha, NE 68106, USA",Match,Google
kenyon college,"Library and Information Services,Kenyon College,103 College Drive,Gambier, OH 43022",40.3718965,-82.3983079,"103 College Rd, Gambier, OH 43022, USA",Match,Google
"IL, Johnson Library Center","Hampshire College,893 West St.,Amherst US-MA 01002-3359 US",42.325559,-72.5322956,"893 West St, Amherst, MA 01002, USA",Match,Google
IL / NASSAU COMMUNITY COLLEGE LIBRAARY,"One Education Drive,Garden City US-NY 11530 US",40.7297555,-73.592377,"1 Education Dr, Garden City, NY 11530, USA",Match,Google
Icahn School of Medicine at Mount Sinai,One Gustave L. Levy Place New York US-NY 10029 US,40.7899899,-73.953689,"1 Gustave L. Levy Pl, New York, NY 10029, USA",Match,Google
IBM T.J. Watson Research Center Library,"IBM T.J. Watson Research Center Library,1101 Kitchawan Road,Yorktown Heights US-NY 10598 US",41.2097516,-73.8026467,"1101 Kitchawan Rd, Yorktown Heights, NY 10598, USA",Match,Google
I.L.L. Dept / SUNY Health Science Center at Brooklyn,"SUNY - Downstate Medical Research Library,450 Clarkson Ave,Brooklyn, NY US-NY 11203 US",40.6552459,-73.945734,"450 Clarkson Ave, Brooklyn, NY 11203, USA",Match,Google
HUNTINGTON PUBLIC LIBRARY,"338 MAIN STREET,HUNTINGTON US-NY 11743-6999 US",40.8705012,-73.4300972,"338 Main St, Huntington, NY 11743, USA",Partial Match,Google
Hunter-Rice Health Sciences / ILL,"Hunter-Rice Health Sciences LibrarySamaritan Medical Center,830 Washington Street,Watertown US-NY 13601 US",43.965183,-75.9141549,"830 Washington St, Watertown, NY 13601, USA",Match,Google
Hunterdon County Library,314 State Rte 12 Flemington NJ 08822,40.5041248,-74.8990627,"314 NJ-12, Flemington, NJ 08822, USA",Match,Google
HUNTER COLLEGE LIBRARY/ILL,",East Building, Floor B1, Room B161,SE CORNER LEXINGTON & 68 ST.,NY, NY 10065,***Access thru West Bldg Lobby, Visitors Desk",40.7678615,-73.9640761,"Lexington Ave & E 68th St, New York, NY 10065, USA",Partial Match,Google
HOUSTON PUBLIC LIBRARY/ILL,"143-HOU,500 McKinney,Houston US-TX 77002",29.7575482,-95.3653064,"945 McKinney St, Houston, TX 77002, USA",Partial Match,Google
Housatonic Community College Library,"900 Lafayette Boulevard,Bridgeport US-CT 06604 US",41.175387,-73.191406,"900 Lafayette Blvd, Bridgeport, CT 06604, USA",Match,Google
Hostos Community College Library,"Hostos Community College Library - ,475 Grand Concourse, A-308C,Bronx US-NY 10451 US",40.818304,-73.9277427,"475 Grand Concourse, Bronx, NY 10451, USA",Partial Match,Google
Hope International University,"Hugh & Hazel Darling Library Interlibrary Loan,2500 E Nutwood Ave,Fullerton US-CA 92831 US",33.8768519,-117.8854605,"2500 Nutwood Ave, Fullerton, CA 92831, USA",Partial Match,Google
Homer Township Public Library,"14320 W. 151st Street,Homer Glen, IL 60491",41.6142857,-87.9674492,"14320 W 151st St, Homer Glen, IL 60491, USA",Match,Google
Holy Trinity Orthodox Seminary Library,"1407 Robinson RoadPO Box 36Jordanve, NY 13361-0036,US",42.9275625,-74.9348534,"1407 Robinson Rd, Mohawk, NY 13407, USA",Partial Match,Google
HIGH PLAINS LIBRARY DISTRICT / ILL,"Courier C206,HIGH PLAINS LIBRARY DISTRICT,2650 29th Street,Greeley US-CO 80631-8504 US",40.3904047,-104.7242753,"2650 W 29th St, Greeley, CO 80631, USA",Match,Google
Hewlett Woodmere Public Library - ILL,"1125 Broadway,Hewlett Woodmere US-NY 11557 US",40.6338462,-73.7044787,"1125 Broadway, Woodmere, NY 11598, USA",Match,Google
Herrick Memorial Library/ILL Dept.,"One Saxon Drive,Alfred US-NY 14802 US",42.2469977,-77.7881176,"Alfred, NY 14802, USA",Match,Google
Herkimer County Community College Library/ILL,"Herkimer County Community College,100 Reservoir Road,Herkimer US-NY 13350 US",43.0322822,-75.006246,"100 Reservoir Rd, Herkimer, NY 13350, USA",Match,Google
HENNEPIN COUNTY LIBRARY,"HENNEPIN COUNTY LIBRARY,300 NICOLLET MALL,MINNEAPOLIS US-MN 55401 US",44.9802568,-93.2700336,"300 Nicollet Mall, Minneapolis, MN 55401, USA",Match,Google
Hempstead Public Library,"115 Nichols Court,Hempstead US-NY 11550 US",40.7103609,-73.6221687,"115 Nichols Ct, Hempstead, NY 11550, USA",Match,Google
"Health Sciences Library, NYU School of Medicine/ILL","NYU School of Medicine,550 First Avenue,,New York US-NY 10016 US",40.7420697,-73.9743355,"550 1st Avenue, New York, NY 10016, USA",Match,Google
Health Sciences Library,"New York Medical College,Basic Sciences Bldg.,Valhalla,N.Y., 10595",41.0837635,-73.8104648,"Basic Science Building, Sunshine Cottage Rd, Valhalla, NY 10595, United States",Match,Google
jewish medical center,"Long Island Jewish Medical Center,270-05 76th Avenue,New Hyde Park US-NY 11040 US",40.7532584,-73.7072296,"270-5 76th Ave, Queens, NY 11040, USA",Match,Google
Harborfields Public Library,"31 Broadway,Greenlawn, NY 11740-1382",40.8711835,-73.3669,"31 Broadway, Greenlawn, NY 11740, USA",Partial Match,Google
Haddon Heights Library / ILLNJ 3828,"LLNJ 3828,608 Station Avenue Region: NJ,Haddon Heights 08035",39.8817654,-75.0590189,"608 Station Ave, Haddon Heights, NJ 08035, USA",Match,Google
Guilderland Public Library ILL,"Guilderland Public Library ,2228 Western Avenue,Guilderland NY US 12084-9701",42.7002313,-73.9049614,"2228 Western Ave, Guilderland, NY 12084, USA",Partial Match,Google
Guernsey Memorial Library,"3 Court Street,Norwich US-NY 13815-1602 US",42.5313351,-75.5255401,"3 Court St, Norwich, NY 13815, USA",Partial Match,Google
Griswold Library,"Green Mountain College, One College Circle , Poultney, VT 05764",43.5167448,-73.2442058,"1 Brennan Cir, Poultney, VT 05764, USA",Match,Google
GREENVILLE PUBLIC LIBRARY - ILL Dept.,"573 PUTNAM PIKE,GREENVE US-RI 02828 US",41.8707883,-71.5493187,"573 Putnam Pike, Greenville, RI 02828, USA",Partial Match,Google
GREENSBURG-HEMPFIELD AREA LIBRARY,"237 S PENNSYLVANIA AVE,GREENSBURG, PA 15601",40.3003776,-79.5442932,"237 S Pennsylvania Ave, Greensburg, PA 15601, USA",Match,Google
GREATER SOUTHERN TIER BOCES(YGH),"459 Philo Rd,Elmira US-NY 14903 US",42.148992,-76.835096,"459 Philo Rd, Elmira, NY 14903, USA",Match,Google
Great River Regional Library/Interlibrary Loan,"Great River Regional Library,1300 W. St. Germain Street,St Cloud US-MN 56301 US",45.5564239,-94.167956,"1300 W St Germain St, St Cloud, MN 56301, USA",Match,Google
Great Neck Public Library,"10 Campbell Street,New Hyde Park US-NY 11040 US",40.748934,-73.6966125,"10 Campbell St, New Hyde Park, NY 11040, USA",Match,Google
Gordon Library / ILL,"WPG-Worcester Polytechnic Institute,100 Institute Road,Worcester US-MA 01609 US",42.2742148,-71.8106907,"100 Institute Rd, Worcester, MA 01609, USA",Match,Google
Gold Coast Public Library,"50 Railroad Ave,Glen Head US-NY US",40.8322177,-73.6255257,"50 Railroad Ave, Glen Head, NY 11545, USA",Match,Google
GILL LIBRARY/THE COLLEGE OF NEW ROCHELLE,"The College of New Rochelle,29 Castle Place,New Rochelle, NY 10805",40.9016407,-73.7812453,"29 Castle Pl, New Rochelle, NY 10805, USA",Match,Google
Gettysburg College Library / ILL,"Interlibrary Loan,Gettysburg College Library,Gettysburg, PA 17325-1493",39.8358514,-77.2345385,"300 N Washington St, Gettysburg, PA 17325, USA",Match,Google
"George T Harrell Library - H127, ILL Room C1620A","500 University Drive, PO Box 850,H127 - Room C1620,Hershey US-PA 17033 US",40.2640375,-76.6766783,"500 University Dr c1620, Hershey, PA 17033, USA",Partial Match,Google
George F. Johnson Memorial Library,"1001 Park Street,Endicott US-NY 13760 US",42.0987709,-76.0508645,"1001 Park St, Endicott, NY 13760, USA",Match,Google
Genesee Community College / O'Connell Library / ILL,"One College Road,Batavia US-NY 14020 US",42.9981156,-78.1875167,"Batavia, NY 14020, USA",Match,Google
General Theological Seminary,"Christoph Keller, Jr. Library - ,440 W. 21st St.,New York, NY 10011",40.7458439,-74.0039926,"440 W 21st St, New York, NY 10011, USA",Match,Google
Gelman Library ILL,"Gelman Library ,2130 H St., NW,Washington US-DC 20052 US",38.8992047,-77.0484016,"2130 H St NW, Washington, DC 20052, USA",Match,Google
Geisel Library - ILL,"Saint Anselm College,100 Saint Anselm Drive,Manchester US-NH 03102-1310 US",42.9863692,-71.5070056,"100 St Anselm Dr, Manchester, NH 03102, USA",Partial Match,Google
Garden City Publ.Libr.ILL,"60 Seventh Street,Garden City US-NY 11530 US",40.7237212,-73.6389379,"60 7th St, Garden City, NY 11530, USA",Match,Google
"Gannon University, Nash Library","Nash Library - ,109 University Square,Erie, PA 16541",42.1276653,-80.0882836,"619 Sassafras St, Erie, PA 16541, USA",Match,Google
GALVIN LIBRAR Y ILL/ILLINOIS INSTITUTE OF TECHNOLOGY,35 West 33rd Street Chicago IL 60616-3607,41.8346762,-87.6275327,"35 W 33rd St, Chicago, IL 60616, USA",Partial Match,Google
FURMAN UNIVERSITY LIBRARY-ILL,"3300 POINSETT HWY,GREENVE US-SC 29613 US",34.9267003,-82.4349,"3300 Poinsett Hwy, Greenville, SC 29613, USA",Partial Match,Google
Framingham Public Library,"49 Lexington Street, Dept.,Framingham US-MA 01702 US",42.2820414,-71.4167488,"49 Lexington St, Framingham, MA 01702, USA",Partial Match,Google
Foxburg Free Library / ILL,"Oil City Library,2 Central Avenue,Oil City US-PA 16301-2734 US",41.4289293,-79.7114378,"2 Central Ave, Oil City, PA 16301, USA",Match,Google
Four County Library System/ILL Dept.,"Four County Library System , 304 Clubhouse Rd., Vestal, NY 13850.",42.089831,-75.9498301,"304 Clubhouse Rd, Vestal, NY 13850, USA",Match,Google
Forsyth County Public Library / ILL,",585 Dahlonega Rd,Cumming,GA 30040",34.2205957,-84.1317717,"585 Dahlonega St, Cumming, GA 30040, USA",Partial Match,Google
FOLEY LIBRARY- ILL,"Gonzaga University,502 E BOONE AVE,Spokane US-WA 99258-0095 US",47.667189,-117.4023849,"502 E Boone Ave, Spokane, WA 99202, USA",Match,Google
FNU Library / Frontier Nursing University / ILL,"Frontier Nursing University,170 Prosperous Place,Lexington US-KY 40509 US",38.0026825,-84.4406101,"170 Prosperous Pl, Lexington, KY 40509, USA",Match,Google
Finger Lakes Library System,"1300 Dryden Road,Ithaca US-NY 14850 US",42.467953,-76.410767,"1300 Dryden Rd, Ithaca, NY 14850, USA",Match,Google
FARGO PUBLIC LIBRARY / ILL,"FARGO PUBLIC LIBRARY,102 3RD STREET NORTH,FARGO US-ND 58102 US",46.8772954,-96.7837759,"102 3rd St N, Fargo, ND 58102, USA",Match,Google
Evanston Public Library-ILL,"1703 Orrington Av,Evanston, IL 60201",42.0483943,-87.6800306,"1703 Orrington Ave, Evanston, IL 60201, USA",Match,Google
Episcopal Divinity School / Library / ILL,"Library,Episcopal Divinity School,99 Brattle St.,Cambridge MA 02138",42.3765184,-71.1246795,"99 Brattle St, Cambridge, MA 02138, USA",Match,Google
Engr & Sci Library / ILL / Carnegie Mellon Univ.,"4909 Frew St.,Hunt Library Room 305,Pittsburgh US-PA 15213 US",40.4410927,-79.943752,"Carnegie Mellon University, 4909 Frew St, Pittsburgh, PA 15213, USA",Match,Google
Emmanuel College Library / ILL,",400 The Fenway,Boston US-MA 02115 US",42.3403687,-71.1016439,"400 Fenway, Boston, MA 02115, USA",Partial Match,Google
Elmira College,"GANNETT TRIPP LIBRARY,ELMIRA COLLEGE ONE PARK PLACE,ELMIRA US-NY 14901 US",42.0954345,-76.8163224,"1 Park Pl, Elmira, NY 14901, USA",Match,Google
Elmira Business Institute,"4100 Vestal Road,Vestal NY US 13850",42.0968736,-75.9749658,"4100 Old Vestal Rd, Vestal, NY 13850, USA",Partial Match,Google
Elizabeth Public Library / ILL,"Elizabeth Public Library , ,11 South Broad Street,Elizabeth, NJ 07202 US-NJ 07202",40.6616092,-74.2155731,"11 Broad St, Elizabeth, NJ 07202, USA",Match,Google
Elizabeth Oedel,"Brookfield Library,182 Whisconier Rd.,Brookfield US-CT 06804 US",41.4697351,-73.3899515,"182 Whisconier Rd, Brookfield, CT 06804, USA",Match,Google
Eastern Suffolk BOCES SLS/ILL,"627A No. Sunrise Service Rd.,Bellport US-NY 11713 US",40.789004,-72.9608087,"627 Sunrise Hwy North Service Rd, Bellport, NY 11713, USA",Partial Match,Google
EASTERN ILLINOIS UNIVERSITY / BOOTH LIBRARY / ILL,"Booth Library - Dept.,600 Lincoln Ave.,Charleston US-IL 61920 US",39.4798431,-88.1756355,"600 Lincoln Avenue, Charleston, IL 61920, USA",Match,Google
E.H. Butler Library,"SUNY Buffalo State,1300 ELMWOOD AVE,BUFFALO US-NY 14222 US",42.9335922,-78.8820665,"1300 Elmwood Ave, Buffalo, NY 14222, USA",Match,Google
Dutchess Community College Library/Interlibrary loan,"DUTCHESS COMMUNITY COLLEGE LIBRARY,53 PENDELL RD,POUGHKEEPSIE US-NY 12601",41.7222178,-73.9067896,"53 Pendell Rd, Poughkeepsie, NY 12601, USA",Match,Google
Dudley Knox Library / ILL code 013 / Naval Postgraduate Sc,"411 Dyer Road, Room 110,Monterey US-CA 93943-5101 US",36.5975364,-121.8772772,"411 Dyer Road #110, Monterey, CA 93943, USA",Partial Match,Google
DRAKE LIB.ILL/SUNY BROCKPORT,"The College at Brockport,350 New Campus Drive,Brockport US-NY 14420 US",43.210018,-77.9507327,"350 New Campus Dr, Brockport, NY 14420, USA",Match,Google
Dowling College Library/ILL Dept.,"150 Idle Hour Boulevard,Oakdale US-NY 11769 US",40.742055,-73.147905,"150 Idle Hour Blvd, Oakdale, NY 11769, USA",Match,Google
Donald B. Watt Library/ ILL,"World Learning,Kipling Rd.,PO Box 676,Brattleboro, VT 05302-0676",42.8902553,-72.5670648,"1 Kipling Rd, Brattleboro, VT 05302, USA",Partial Match,Google
Dominican College,"Sullivan Library,480 Western Hwy,Blauvelt US-NY 10913 US",41.052028,-73.955624,"480 Western Highway, Blauvelt, NY 10913, United States",Match,Google
DOCUMENT DELIVERY Services- MS 1322,"Mathewson-IGT Knowledge Ctr. University of Nevada, Reno.,1664 N. VIRGINIA ST,RENO US-NV 89557-1322 US",39.543642,-119.815425,"1664 N Virginia St, Reno, NV 89557, USA",Match,Google
DOCUMENT DELIVERY SERVICES,"SAN FRANCISCO STATE UNIV LIBRARY,1630 HOLLOWAY AVENUE,SAN FRANCISCO US-CA 94132 US",37.721897,-122.4782094,"1600 Holloway Ave, San Francisco, CA 94132, USA",Match,Google
DOCUMENT DELIVERY & RESOURCE SHARING/LIBRARY/PENN COLLEGE OF TECHNOLOG,"PENNSYLVANIA COLLEGE OF TECHNOLOGY,One College Avenue,Wiamsport US-PA 17701 US",41.234716,-77.021041,"1 College Ave, Williamsport, PA 17701, USA",Match,Google
DENVER PUBLIC LIBRARY / ILL,"DENVER PUBLIC LIBRARY,10 W 14TH AVE PARKWAY,DENVER US-CO 80204 US",39.737845,-104.9878603,"10 W 14th Ave Pkwy, Denver, CO 80204, United States",Match,Google
Deane Law Library,122 Hofstra University Hempstead US-NY 11543 US,40.7165676,-73.5985336,"1000 Fulton Ave, Hempstead, NY 11549, USA",Partial Match,Google
DDS - INDIANA-PURDUE UNIV LIBRARY,"Helmke Library,Indiana University Purdue University Fort Wayne,2101 E Coliseum Blvd,Fort Wayne US-IN 46805-1499 US",41.1171684,-85.1089567,"2101 E Coliseum Blvd, Fort Wayne, IN 46805, USA",Match,Google
Cunningham Memorial Library--ILL,"Cunningham Memorial Library- ,510 N 6 1,2 St,Terre Haute US-IN 47809 US",39.4727269,-87.4088396,"Indiana State University, 510 N 6th St, Terre Haute, IN 47809, USA",Match,Google
Cudahy Library Interlibrary Loan,"Loyola University Chicago,1032 W. Sheridan Rd.,Chicago US-IL 60660 US",41.998997,-87.6581921,"1032 W Sheridan Rd, Chicago, IL 60660, USA",Match,Google
Courier C422,"Interlibrary Loan ,University Library , Colorado State University-Pueblo, 2200 Bonforte Blvd., Pueblo, CO",38.306015,-104.579911,"2200 Bonforte Blvd, Pueblo, CO 81001, USA",Match,Google
Courier - KS229,"1700 SW COLLEGE AVE,TOPEKA US-KS 66621 US",39.0362597,-95.7025222,"1700 SW Jewell Ave, Topeka, KS 66621, USA",Match,Google
County College of Morris / ILL,214 Center Grove Road Randolph NJ 07869-2086,40.8581645,-74.5813738,"214 Center Grove Rd, Randolph, NJ 07869, USA",Partial Match,Google
Coulter Library / ILL,"Coulter Library,Onondaga Community College,4585 West Seneca Tnpk,Syracuse US-NY 13215 US",43.0052378,-76.199866,"4585 W Seneca Turnpike, Syracuse, NY 13215, USA",Match,Google
CORNING INCORPORATED/TECHNICAL INFORMATION CENTER SP-TI-01,"108 North Cayuga Street,Ithaca US-NY 14850 US",42.439728,-76.4990306,"108 N Cayuga St, Ithaca, NY 14850, USA",Match,Google
Coralville Public Library,"1401 5th St,Coralve US-IA 52241 US",41.6771696,-91.5820513,"1401 5th St, Coralville, IA 52241, USA",Partial Match,Google
Concordia University Library,"Concordia University Library,2811 NE Holman St,Portland US-OR 97211-6099 US",45.5701912,-122.6368874,"2811 NE Holman St, Portland, OR 97211, USA",Match,Google
Concordia College Library/ILL,"171 White Plains Road,Bronxve, NY 10708",40.9426774,-73.8221476,"171 White Plains Rd, Bronxville, NY 10708, USA",Partial Match,Google
Columbia University Libraries/ Interlibrary Loan,"535 West 114th St.,New York US-NY 10027 US",40.8064029,-73.9632198,"535 W 114th St, New York, NY 10027, USA",Match,Google
Columbia University,701 W. 168th St.-NY 10032 US,40.8427073,-73.9426069,"701 W 168th St, New York, NY 10032, USA",Match,Google
COLLEGE OF STATEN ISLAND LIBRARY,"COLLEGE OF STATEN ISLAND LIBRARY,2800 VICTORY BLVD, 1L-106A,STATEN ISLAND US-NY 10314 US",40.5973762,-74.148402,"2800 Victory Blvd, Staten Island, NY 10314, USA",Partial Match,Google
COKAMO C902,"CCU Library - , 8787 W. Alameda Ave. , Lakewood, CO 80226",39.7130215,-105.0956439,"8787 W Alameda Ave, Lakewood, CO 80226, USA",Match,Google
COKAMO C196,"Regis University D-20,3333 Regis Blvd,Denver US-CO 80221 US",39.7893676,-105.0298065,"3333 Regis Blvd, Denver, CO 80221, USA",Match,Google
COKAMO - C306,"- Pikes Peak Library Dist,20 N. Cascade Ave,P.O. Box 1579,Colo Spgs, CO 80903",38.835247,-104.825906,"20 N Cascade Ave, Colorado Springs, CO 80903, USA",Match,Google
Clinton-Essex-Franklin Library System,"Clinton-Essex-Franklin Library System,33 Oak Street,Plattsburgh US-NY 12901 US",44.6975056,-73.4558393,"33 Oak St, Plattsburgh, NY 12901, USA",Match,Google
Clement C. Maxwell Library- ILL-DDS,"Bridgewater State University,10 Shaw Rd.,Bridgewater US-MA 02325 US",41.9869071,-70.9707476,"10 Shaw Rd, Bridgewater, MA 02325, USA",Match,Google
Citizens Library - ILL,"55 South College Street,Washington US-PA 15301 US",40.1700305,-80.2429376,"55 S College St, Washington, PA 15301, USA",Match,Google
CHICAGO PUBLIC LIBRARY / ILL,", 400 S. STATE ST., 3N , CHICAGO, IL 60605",41.876178,-87.6282598,"400 S State St, Chicago, IL 60605, USA",Partial Match,Google
CHESTER PUBLIC LIBRARY,"1784 KINGS HIGHWAY,CHESTER US-NY 10918 US",41.3388009,-74.2749599,"1784 Kings Hwy, Chester, NY 10918, USA",Match,Google
Chester County Library & District Ctr./ILL,"Chester County Library,450 Exton Square Parkway,Exton, Pa. 19341",40.0321235,-75.620791,"450 Exton Square Pkwy, Exton, PA 19341, USA",Match,Google
Cheng Library - ILL,"Wiam Paterson University,300 Pompton Road,Wayne US-NJ 07470 US",40.9460061,-74.1981377,"Atrium, 300 Pompton Rd, Wayne, NJ 07470, USA",Match,Google
"Charles M. Baugh Biomedical Library, CBBL 212",",5791 USA DRIVE, NORTH,BLB 216,Mobile US-AL 36688-0002 US",30.697959,-88.183385,"5791 USA Dr N, Mobile, AL 36608, USA",Partial Match,Google
Central Oregon Community College Library,"CENTRAL OREGON COMMUNITY COLLEGE,2600 NW COLLEGE WAY,BEND US-OR 97701-5998 US",44.0713603,-121.3485532,"2600 NW College Way, Bend, OR 97703, USA",Match,Google
Central Michigan University - ILL--PA212/Central Michigan University L,"250 E PRESTON,PARK LIBRARY 212,Mount Pleasant US-MI 48859 US",43.5892402,-84.7742838,"250 W Preston St, Mt Pleasant, MI 48859, USA",Match,Google
Centerville Library,"111 W. Spring Valley Rd.,Centerve, OH,45458",39.6141979,-84.1626847,"111 W Spring Valley Pike, Centerville, OH 45458, USA",Partial Match,Google
CD&L#2368[I],"Union Public Library,1980 Morris Ave,Union US-NJ 07083",40.695402,-74.269043,"1980 Morris Ave, Union, NJ 07083, USA",Match,Google
CD&L#1215[H],"West Milford Township Library,1490 Union Valley Road,West Milford US-NJ 07480",41.1297002,-74.3682468,"1490 Union Valley Rd, West Milford, NJ 07480, USA",Match,Google
Cassidy Lent,"National Baseball Hall of Fame Library - ,25 Main Street,Cooperstown US-NY 13326 US",42.6999368,-74.9232137,"25 Main St, Cooperstown, NY 13326, USA",Match,Google
Carrier Library - ILL-MSC 1704,"James Madison University,880 Madison Drive,Harrisonburg US-VA 22807 US",38.435092,-78.8697548,"800 S Main St, Harrisonburg, VA 22807, USA",Match,Google
Canisius College Library / ILL,"2001 Main Street,Buffalo US-NY 14208 US",42.9250304,-78.8526712,"2001 Main St, Buffalo, NY 14208, USA",Match,Google
CAMDEN CNTY LIBRARY - Interlibrary Loan,"Camden County Library (Region 3831),203 Laurel Road,Voorhees US-NJ 08043-2378 US",39.848129,-75.001197,"203 Laurel Rd, Voorhees Township, NJ 08043, USA",Partial Match,Google
Cambridge Community Library,"Interlibrary Loan , P.O. Box 490,Cambridge, WI 53523",43.0036122,-89.0164995,"Cambridge, WI 53523, USA",Match,Google
Calvin T. Ryan Library - ILL,"Univ of Nebraska at Kearney,2508 11th Avenue,Kearney US-NE 68849-2240 US",40.7005404,-99.0968275,"2508 11th Ave, Kearney, NE 68849, USA",Partial Match,Google
California State Library / ILL,"900 N Street Sacramento, CA 94237-0001",38.575783,-121.496408,"900 N St, Sacramento, CA 95814, USA",Partial Match,Google
Bunch Library / ILL,"BELMONT UNIVERSITY,1900 BELMONT BLVD,NASHVE US-TN 37212-3757 US",36.1328981,-86.7940699,"1900 Belmont Blvd, Nashville, TN 37212, USA",Partial Match,Google
BUFFALO & ERIE COUNTY PUBLIC LIBRARY/ ILL,"Buffalo & Erie County Public Library,1 Lafayette Square,Buffalo US-NY 14203 US",42.885459,-78.872326,"1 Lafayette Square, Buffalo, NY 14203, USA",Match,Google
Buena Vista University Library,"Buena Vista University Library,610 W 4th St,Storm Lake US-IA 50588 US",42.640722,-95.21007,"610 W 4th St, Storm Lake, IA 50588, USA",Match,Google
"BRYANT & STRATTON BUSINESS COLLEGE, SYRACUSE N CAMPUS","Syracuse North Division,8687 Carling Road,Liverpool, NY 13090",43.1897305,-76.2402162,"8687 Carling Rd, Liverpool, NY 13090, USA",Match,Google
BROOME-TIOGA BOCES / SCHOOL LIBRARY SYSTEM,"Broome-Tioga BOCES,435 Glenwood Rd.,Binghamton US-NY 13905 US",42.129196,-75.9333803,"435 Glenwood Rd, Binghamton, NY 13905, USA",Match,Google
BROOKS MEMORIAL LIBRARY IL,"224 MAIN STREET,BRATTLEBORO US-VT 05301 US",42.8552873,-72.5599282,"224 Main St, Guilford, VT 05301, USA",Match,Google
Brooklyn Public Library /20- ILL,"Grand Army Plaza,Brooklyn US-NY 11238",40.6729795,-73.9693426,"Grand Army Plaza, Brooklyn, NY 11238, USA",Match,Google
Brooklyn Law School Library/ ILL Dept.,"250 Joralemon St.,Brooklyn US-NY 11201 US",40.6922678,-73.9893548,"250 Joralemon St, Brooklyn, NY 11201, USA",Match,Google
Brookfield Free Public Library - ILL/,"40 Ralph Road,Brookfield US-VT 05036 US",44.043159,-72.602768,"40 Ralph Rd, Brookfield, VT 05036, USA",Match,Google
BROOKDALE COMMUNITY COLLEGE/ILL/LRC,765 Newman Springs Road Lincroft US-NJ 07738 US,40.3328514,-74.1340549,"765 Newman Springs Rd, Lincroft, NJ 07738, USA",Match,Google
Bronx Community College Library / ILL,2155 University Avenue Bronx NY 10453,40.8567706,-73.9105102,"2155 University Ave, Bronx, NY 10453, USA",Match,Google
Bowdoin College Library/ILL,"3001 College Station,Brunswick US-ME 04011-8421 US",43.906776,-69.96198,"College St, Brunswick, ME 04011, USA",Partial Match,Google
Blessing Health Professions Library,"Broadway at 11th St,PO Box 7005,Quincy US-IL 62305-7005 US",39.9356314,-91.3983317,"IL-104 & N 11th St, Quincy, IL 62301, USA",Partial Match,Google
Black Watch Memorial Library,"99 Montcalm Street,Ticonderoga US-NY 12883 US",43.8489495,-73.4253431,"99 Montcalm St, Ticonderoga, NY 12883, USA",Match,Google
Billings Clinic Medical Library,"801 North 29th Street,PO Box 37000,Bings US-MT 59107 US",45.7876927,-108.5125809,"801 N 29th St, Billings, MT 59101, USA",Partial Match,Google
Bentley University Library,"175 Forest St.,Waltham US-MA 02452 US",42.3870119,-71.2206346,"175 Forest St, Waltham, MA 02452, USA",Match,Google
BENNINGTON COLLEGE / Crossett Library - ILL,"-Crossett Library,Bennington College,One College Dr.,Bennington US-VT 05201-6001 US",42.8997153,-73.2114168,"05201, one College Dr, Bennington, VT 05257, USA",Partial Match,Google
Benedictine University Library,"Benedictine University Library,5700 College Road,Lisle US-IL 60532-0900 US",41.7788628,-88.0948979,"5700 College Rd, Lisle, IL 60532, USA",Partial Match,Google
Bellarmine University,"Library-,2001 Newburg Rd.,Louisve US-KY 40205 US",38.218989,-85.7091432,"2001 Newburg Rd, Louisville, KY 40205, USA",Partial Match,Google
BELLAIRE PUBLIC LIBRARY / ILL,"140 S. PAINT STREET,CHICOTHE US-OH 45601 US",39.3297788,-82.9816277,"140 S Paint St, Chillicothe, OH 45601, USA",Partial Match,Google
BEGLEY LIBRARY ILL/SCHENECTADY COUNTY COMMUNITY COLLEGE,"Schenectady County Community College,78 Washington Avenue,Schenectady US-NY 12305 US",42.8145482,-73.9511974,"78 Washington Ave, Schenectady, NY 12305, USA",Match,Google
Bayville Free Library / ILL,"34 School Street,Bayve US-NY 11709 US",40.9078392,-73.566327,"34 School St, Bayville, NY 11709, USA",Partial Match,Google
BAY PATH COLLEGE / HATCH LIBRARY / ILL,"HATCH LIBRARY DEPT,588 Longmeadow St.,Longmeadow US-MA 01106 US",42.0555615,-72.5838321,"588 Longmeadow St, Longmeadow, MA 01106, USA",Match,Google
Baruch College Library ILL,"Baruch College Library,151 E. 25th Street, Rm. 209,New York US-NY 10010 US",40.7407668,-73.9827893,"151 E 25th St, New York, NY 10010, USA",Match,Google
Bartle Library - ILL,"BNG-Binghamton University,4400 Vestal Parkway East - BOX 6012,Binghamton US-NY 13902-6012 US",42.0932729,-75.9721009,"4400 Vestal Pkwy E, Vestal, NY 13850, USA",Partial Match,Google
Baltimore County Public Library/ILL,"Baltimore County Public Library,320 York Road,Towson US-MD 21204 US",39.39889,-76.6024626,"320 York Rd, Towson, MD 21204, USA",Match,Google
Baker College Center for Graduate Studies,"Interlibrary Loan, 1116 West Bristol Road, Flint, MI 48507",42.974238,-83.697119,"1116 W Bristol Rd, Flint, MI 48507, USA",Match,Google
BABYLON PUBLIC LIBRARY,"31 Broadway,Greenlawn, US-NY 11740-1382 US",40.8711835,-73.3669,"31 Broadway, Greenlawn, NY 11740, USA",Partial Match,Google
Babson College / Horn Library / ILL,"Babson College,231 Forest Street,Babson Park US-MA 02481 US",42.2990202,-71.2623463,"231 Forest St, Wellesley, MA 02481, USA",Partial Match,Google
Axinn Library/ILL/Hofstra University,"123 Hofstra University,Hempstead US-NY 11549 US",40.7165676,-73.5985336,"1000 Fulton Ave, Hempstead, NY 11549, USA",Partial Match,Google
AUGUSTANA COLLEGE / TREDWAY LIBRARY / ILL,"639 38th Street,Rock Island US-IL 61201 US",41.5051775,-90.5471872,"639 38th St, Rock Island, IL 61201, USA",Match,Google
AUGUSTANA COLLEGE / ILL,"Augustana College,2001 S. Summit Ave.,Sioux Falls US-SD 57197 US",43.5272492,-96.7362727,"2001 S Summit Ave, Sioux Falls, SD 57197, USA",Match,Google
AUGSBURG COLLEGE/LINDELL LIBRARY/ILL,Minneapolis MN 55454 US,44.9669685,-93.2409552,"Minneapolis, MN 55454, USA",Match,Google
Aubrey R. Watzek Library / ILL,"Library ,0615 SW Palatine H Road,Portland US-OR 97219-7899 US",45.450836,-122.669089,"0615 SW Palatine Hill Rd, Portland, OR 97219, USA",Partial Match,Google
Attn: Vanessa Meador,"OUR LADY OF THE LAKE UNIVERSITY LIBRARY,411 S.W. 24th St.,San Antonio US-TX 78207-4689 US",29.4264099,-98.5433654,"411 SW 24th St, San Antonio, TX 78207, USA",Match,Google
N.J. Dept. of Environmental Protection,Trenton US-NJ 08625-0420 US,40.2207029,-74.760833,"Trenton, NJ 08625, USA",Partial Match,Google
"Arthur A. Houghton, Jr. Library / Interlibrary Loan","One Academic Drive,Corning US-NY 14830 US",42.1172594,-77.0735445,"1 Academic Dr, Corning, NY 14830, USA",Match,Google
ARNOT OGDEN MEDICAL CENTER/WEY MEMORIAL LIBRARY,"600 Roe Avenue,Elmira NY US 14905-1676",42.1003102,-76.8281275,"600 Roe Ave, Elmira, NY 14905, USA",Partial Match,Google
Argosy University,"Tampa Library1403 N. Howard Ave Tampa, FL 33607",27.9552391,-82.4825728,"1403 N Howard Ave, Tampa, FL 33607, USA",Partial Match,Google
Arcadia University - Library,"450 S. Easton Rd., Dept - Landman Library,Glenside US-PA 19038-3295 US",40.0925639,-75.1638864,"450 S Easton Rd, Glenside, PA 19038, USA",Partial Match,Google
APU Consortium Library-ILL,"3211 Providence Dr.,UNIV. OF ALASKA-ANCHORAGE,Anchorage US-AK 99508 US",61.190675,-149.817684,"3211 Providence Dr, Anchorage, AK 99508, USA",Match,Google
Antioch University Library,"Antioch University,40 Avon St,Keene US-NH 03431-3516 US",42.9317822,-72.2938339,"40 Avon St, Keene, NH 03431, USA",Match,Google
AMERICAN MUSEUM OF NATURAL HISTORY/LIBRARY-ILL,"American Museum of Natural History,Central Park West @ 79th St,New York US-NY 10024-5192 US",40.7820454,-73.9717106,"79th St Transverse & W 81st St, New York, NY 10024, USA",Partial Match,Google
ALDRICH PUBLIC LIBRARY ILL,"235 COLLEGE STREET,BURLINGTON US-VT 05401 US",44.477196,-73.210304,"235 COLLEGE ST, BURLINGTON, VT, 05401",Match,US Census
"Albertus Magnus College Library, ILL Dept.","700 Prospect St.,New Haven US-CT 06511 US",41.331516,-72.921135,"700 PROSPECT ST, NEW HAVEN, CT, 06511",Match,US Census
University Central Arkansas,"201 Donaghey Ave. ,Conway US-AR 72035 US",35.078377,-92.45423,"201 DONAGHEY AVE, CONWAY, AR, 72035",Match,US Census
Quinnipiac University/Arnold Bernhard Library--ILL,"275 Mt. Carmel Avenue, HamdenCT 06518",41.421494,-72.895065,"275 MOUNT CARMEL AVE, HAMDEN, CT, 06518",Match,US Census
ILL/Rensselaer Polytechnic Institute/Folsom Library,"110 8th Street,Troy US-NY 12180-3590 US",42.73287,-73.68358,"110 8TH ST, TROY, NY, 12180",Match,US Census
East Meadow Publ.Library / ILL,"1886 Front Street,East Meadow US-NY 11554-1700 US",40.720062,-73.56385,"1886 FRONT ST, EAST MEADOW, NY, 11554",Match,US Census
DEPAUW UNIVERSITY / ROY O. WEST LIBRARY / ILL BORROWS,"11 East Larabee Street,Greencastle US-IN 46135-1641 US",39.640198,-86.86409,"11 E LARRABEE ST, GREENCASTLE, IN, 46135",Match,US Census
Abilene Public Library,202 N. Cedar Abilene TX 79601,32.450752,-99.73542,"202 CEDAR ST, ABILENE, TX, 79601",Match,US Census
